[
    {
        "id": 2,
        "name_ru": "Москва",
        "name_en": "Moscow",
        "active": true,
        "featured": false,
        "iata": "MOW",
        "country": {
            "id": 2,
            "name_ru": "Россия",
            "name_en": "Russia",
            "iso2": "RU",
            "active": true
        }
    },
    {
        "id": 1261,
        "name_ru": "Анапа",
        "name_en": "Anapa",
        "active": true,
        "featured": false,
        "iata": null,
        "country": {
            "id": 2,
            "name_ru": "Россия",
            "name_en": "Russia",
            "iso2": "RU",
            "active": true
        }
    },
    {
        "id": 1262,
        "name_ru": "Геленджик",
        "name_en": "Gelendzhik",
        "active": true,
        "featured": false,
        "iata": null,
        "country": {
            "id": 2,
            "name_ru": "Россия",
            "name_en": "Russia",
            "iso2": "RU",
            "active": true
        }
    },
    {
        "id": 1263,
        "name_ru": "Сочи",
        "name_en": "Sochi",
        "active": true,
        "featured": false,
        "iata": null,
        "country": {
            "id": 2,
            "name_ru": "Россия",
            "name_en": "Russia",
            "iso2": "RU",
            "active": true
        }
    },
    {
        "id": 1264,
        "name_ru": "Крым",
        "name_en": "Crimean",
        "active": true,
        "featured": false,
        "iata": null,
        "country": {
            "id": 2,
            "name_ru": "Россия",
            "name_en": "Russia",
            "iso2": "RU",
            "active": true
        }
    },
    {
        "id": 1265,
        "name_ru": "Адлер",
        "name_en": "Adler",
        "active": true,
        "featured": false,
        "iata": null,
        "country": {
            "id": 2,
            "name_ru": "Россия",
            "name_en": "Russia",
            "iso2": "RU",
            "active": true
        }
    },
    {
        "id": 1275,
        "name_ru": "Туапсе",
        "name_en": "Tuapse",
        "active": true,
        "featured": false,
        "iata": null,
        "country": {
            "id": 2,
            "name_ru": "Россия",
            "name_en": "Russia",
            "iso2": "RU",
            "active": true
        }
    },
    {
        "id": 1277,
        "name_ru": "Екатеринбург",
        "name_en": "Yekaterinburg",
        "active": true,
        "featured": false,
        "iata": "SVX",
        "country": {
            "id": 2,
            "name_ru": "Россия",
            "name_en": "Russia",
            "iso2": "RU",
            "active": true
        }
    },
    {
        "id": 1278,
        "name_ru": "Кисловодск",
        "name_en": "Kislovodsk",
        "active": true,
        "featured": false,
        "iata": null,
        "country": {
            "id": 2,
            "name_ru": "Россия",
            "name_en": "Russia",
            "iso2": "RU",
            "active": true
        }
    },
    {
        "id": 1279,
        "name_ru": "Железноводск",
        "name_en": "Zheleznovodsk",
        "active": true,
        "featured": false,
        "iata": null,
        "country": {
            "id": 2,
            "name_ru": "Россия",
            "name_en": "Russia",
            "iso2": "RU",
            "active": true
        }
    },
    {
        "id": 1281,
        "name_ru": "Ялта/Отрадное",
        "name_en": "Yalta/Otradnoe",
        "active": true,
        "featured": false,
        "iata": null,
        "country": {
            "id": 2,
            "name_ru": "Россия",
            "name_en": "Russia",
            "iso2": "RU",
            "active": true
        }
    },
    {
        "id": 1282,
        "name_ru": "Форос/Ласпи",
        "name_en": "Foros/Laspi",
        "active": true,
        "featured": false,
        "iata": null,
        "country": {
            "id": 2,
            "name_ru": "Россия",
            "name_en": "Russia",
            "iso2": "RU",
            "active": true
        }
    },
    {
        "id": 1283,
        "name_ru": "Утес",
        "name_en": "Utes",
        "active": true,
        "featured": false,
        "iata": null,
        "country": {
            "id": 2,
            "name_ru": "Россия",
            "name_en": "Russia",
            "iso2": "RU",
            "active": true
        }
    },
    {
        "id": 1284,
        "name_ru": "Симеиз",
        "name_en": "Simeiz",
        "active": true,
        "featured": false,
        "iata": null,
        "country": {
            "id": 2,
            "name_ru": "Россия",
            "name_en": "Russia",
            "iso2": "RU",
            "active": true
        }
    },
    {
        "id": 1285,
        "name_ru": "Рыбачье/Малореченское",
        "name_en": "Rybachye/Malorechenskoe",
        "active": true,
        "featured": false,
        "iata": null,
        "country": {
            "id": 2,
            "name_ru": "Россия",
            "name_en": "Russia",
            "iso2": "RU",
            "active": true
        }
    },
    {
        "id": 1286,
        "name_ru": "Понизовка/Парковое",
        "name_en": "Ponizovka/Parkovoe",
        "active": true,
        "featured": false,
        "iata": null,
        "country": {
            "id": 2,
            "name_ru": "Россия",
            "name_en": "Russia",
            "iso2": "RU",
            "active": true
        }
    },
    {
        "id": 1287,
        "name_ru": "Партенит",
        "name_en": "Partenit",
        "active": true,
        "featured": false,
        "iata": null,
        "country": {
            "id": 2,
            "name_ru": "Россия",
            "name_en": "Russia",
            "iso2": "RU",
            "active": true
        }
    },
    {
        "id": 1288,
        "name_ru": "Ливадия/Курпаты",
        "name_en": "Livadia/Kurpaty",
        "active": true,
        "featured": false,
        "iata": null,
        "country": {
            "id": 2,
            "name_ru": "Россия",
            "name_en": "Russia",
            "iso2": "RU",
            "active": true
        }
    },
    {
        "id": 1289,
        "name_ru": "Гурзуф/Ай-Даниль",
        "name_en": "Gursuf/Ai-Danil",
        "active": true,
        "featured": false,
        "iata": null,
        "country": {
            "id": 2,
            "name_ru": "Россия",
            "name_en": "Russia",
            "iso2": "RU",
            "active": true
        }
    },
    {
        "id": 1290,
        "name_ru": "Гаспра/Мисхор",
        "name_en": "Gaspra/Mishor",
        "active": true,
        "featured": false,
        "iata": null,
        "country": {
            "id": 2,
            "name_ru": "Россия",
            "name_en": "Russia",
            "iso2": "RU",
            "active": true
        }
    },
    {
        "id": 1291,
        "name_ru": "Алушта",
        "name_en": "Alushta",
        "active": true,
        "featured": false,
        "iata": null,
        "country": {
            "id": 2,
            "name_ru": "Россия",
            "name_en": "Russia",
            "iso2": "RU",
            "active": true
        }
    },
    {
        "id": 1292,
        "name_ru": "Алупка/Кореиз",
        "name_en": "Alupka/Koreyiz",
        "active": true,
        "featured": false,
        "iata": null,
        "country": {
            "id": 2,
            "name_ru": "Россия",
            "name_en": "Russia",
            "iso2": "RU",
            "active": true
        }
    },
    {
        "id": 1294,
        "name_ru": "Коктебель/Курортное",
        "name_en": "Koktebel/Kurortnoe",
        "active": true,
        "featured": false,
        "iata": null,
        "country": {
            "id": 2,
            "name_ru": "Россия",
            "name_en": "Russia",
            "iso2": "RU",
            "active": true
        }
    },
    {
        "id": 1295,
        "name_ru": "Судак/Новый Свет",
        "name_en": "Sudak/Novy Svet",
        "active": true,
        "featured": false,
        "iata": null,
        "country": {
            "id": 2,
            "name_ru": "Россия",
            "name_en": "Russia",
            "iso2": "RU",
            "active": true
        }
    },
    {
        "id": 1296,
        "name_ru": "Феодосия/Береговое",
        "name_en": "Pheodosiya/Beregovoe",
        "active": true,
        "featured": false,
        "iata": null,
        "country": {
            "id": 2,
            "name_ru": "Россия",
            "name_en": "Russia",
            "iso2": "RU",
            "active": true
        }
    },
    {
        "id": 1297,
        "name_ru": "Евпатория",
    "name_en": "Eupatoria",
    "active": true,
    "featured": false,
    "iata": null,
    "country": {
      "id": 2,
      "name_ru": "Россия",
      "name_en": "Russia",
      "iso2": "RU",
      "active": true
    }
  },
  {
    "id": 1298,
    "name_ru": "Заозерное",
    "name_en": "Zaozernoe",
    "active": true,
    "featured": false,
    "iata": null,
    "country": {
      "id": 2,
      "name_ru": "Россия",
      "name_en": "Russia",
      "iso2": "RU",
      "active": true
    }
  },
  {
    "id": 1299,
    "name_ru": "Николаевка",
    "name_en": "Nikolaevka",
    "active": true,
    "featured": false,
    "iata": null,
    "country": {
      "id": 2,
      "name_ru": "Россия",
      "name_en": "Russia",
      "iso2": "RU",
      "active": true
    }
  },
  {
    "id": 1300,
    "name_ru": "Оленевка",
    "name_en": "Olenevka",
    "active": true,
    "featured": false,
    "iata": null,
    "country": {
      "id": 2,
      "name_ru": "Россия",
      "name_en": "Russia",
      "iso2": "RU",
      "active": true
    }
  },
  {
    "id": 1301,
    "name_ru": "Песчаное/Угловое",
    "name_en": "Peschanoe/Uglovoye",
    "active": true,
    "featured": false,
    "iata": null,
    "country": {
      "id": 2,
      "name_ru": "Россия",
      "name_en": "Russia",
      "iso2": "RU",
      "active": true
    }
  },
  {
    "id": 1302,
    "name_ru": "Саки/Новофёдоровка",
    "name_en": "Saki/Novofedorovka",
    "active": true,
    "featured": false,
    "iata": null,
    "country": {
      "id": 2,
      "name_ru": "Россия",
      "name_en": "Russia",
      "iso2": "RU",
      "active": true
    }
  },
  {
    "id": 1303,
    "name_ru": "Севастополь/Балаклава",
    "name_en": "Sevastopol/Balaklava",
    "active": true,
    "featured": false,
    "iata": null,
    "country": {
      "id": 2,
      "name_ru": "Россия",
      "name_en": "Russia",
      "iso2": "RU",
      "active": true
    }
  },
  {
    "id": 1304,
    "name_ru": "Черноморское",
    "name_en": "Chernomorskoe",
    "active": true,
    "featured": false,
    "iata": null,
    "country": {
      "id": 2,
      "name_ru": "Россия",
      "name_en": "Russia",
      "iso2": "RU",
      "active": true
    }
  },
  {
    "id": 1305,
    "name_ru": "Симферополь",
    "name_en": "Simferopol",
    "active": true,
    "featured": false,
    "iata": null,
    "country": {
      "id": 2,
      "name_ru": "Россия",
      "name_en": "Russia",
      "iso2": "RU",
      "active": true
    }
  },
  {
    "id": 1306,
    "name_ru": "Ессентуки",
    "name_en": "Essentuki",
    "active": true,
    "featured": false,
    "iata": null,
    "country": {
      "id": 2,
      "name_ru": "Россия",
      "name_en": "Russia",
      "iso2": "RU",
      "active": true
    }
  },
  {
    "id": 1307,
    "name_ru": "Пятигорск",
    "name_en": "Pyatigorsk",
    "active": true,
    "featured": false,
    "iata": null,
    "country": {
      "id": 2,
      "name_ru": "Россия",
      "name_en": "Russia",
      "iso2": "RU",
      "active": true
    }
  },
  {
    "id": 1309,
    "name_ru": "Светлогорск",
    "name_en": "Svetlogorsk",
    "active": true,
    "featured": false,
    "iata": null,
    "country": {
      "id": 2,
      "name_ru": "Россия",
      "name_en": "Russia",
      "iso2": "RU",
      "active": true
    }
  },
  {
    "id": 1311,
    "name_ru": "Санкт-Петербург",
    "name_en": "St Petersburg",
    "active": true,
    "featured": false,
    "iata": "LED",
    "country": {
      "id": 2,
      "name_ru": "Россия",
      "name_en": "Russia",
      "iso2": "RU",
      "active": true
    }
  },
  {
    "id": 1313,
    "name_ru": "Сочи (Красная поляна)",
    "name_en": "Sochi (Krasnaya Polyana)",
    "active": true,
    "featured": false,
    "iata": null,
    "country": {
      "id": 2,
      "name_ru": "Россия",
      "name_en": "Russia",
      "iso2": "RU",
      "active": true
    }
  },
  {
    "id": 1341,
    "name_ru": "Шерегеш",
    "name_en": "Sheregesh",
    "active": true,
    "featured": false,
    "iata": null,
    "country": {
      "id": 2,
      "name_ru": "Россия",
      "name_en": "Russia",
      "iso2": "RU",
      "active": true
    }
  },
  {
    "id": 4,
    "name_ru": "Шарм Эль Шейх",
    "name_en": "Sharm el Sheikh",
    "active": true,
    "featured": true,
    "iata": "SSH",
    "country": {
      "id": 3,
      "name_ru": "Египет",
      "name_en": "Egypt",
      "iso2": "EG",
      "active": true
    }
  },
  {
    "id": 341,
    "name_ru": "Дахаб",
    "name_en": "Dahab",
    "active": true,
    "featured": false,
    "iata": "SSH",
    "country": {
      "id": 3,
      "name_ru": "Египет",
      "name_en": "Egypt",
      "iso2": "EG",
      "active": true
    }
  },
  {
    "id": 344,
    "name_ru": "Марса Алам",
    "name_en": "Marsa Alam",
    "active": true,
    "featured": false,
    "iata": "RMF",
    "country": {
      "id": 3,
      "name_ru": "Египет",
      "name_en": "Egypt",
      "iso2": "EG",
      "active": true
    }
  },
  {
    "id": 346,
    "name_ru": "Нувейба",
    "name_en": "Nuweiba",
    "active": true,
    "featured": false,
    "iata": "TCP",
    "country": {
      "id": 3,
      "name_ru": "Египет",
      "name_en": "Egypt",
      "iso2": "EG",
      "active": true
    }
  },
  {
    "id": 347,
    "name_ru": "Сафага",
    "name_en": "Safaga",
    "active": true,
    "featured": false,
    "iata": "HRG",
    "country": {
      "id": 3,
      "name_ru": "Египет",
      "name_en": "Egypt",
      "iso2": "EG",
      "active": true
    }
  },
  {
    "id": 348,
    "name_ru": "Сома Бей",
    "name_en": "Soma Bay",
    "active": true,
    "featured": false,
    "iata": "HRG",
    "country": {
      "id": 3,
      "name_ru": "Египет",
      "name_en": "Egypt",
      "iso2": "EG",
      "active": true
    }
  },
  {
    "id": 350,
    "name_ru": "Таба",
    "name_en": "Taba",
    "active": true,
    "featured": false,
    "iata": "TCP",
    "country": {
      "id": 3,
      "name_ru": "Египет",
      "name_en": "Egypt",
      "iso2": "EG",
      "active": true
    }
  },
  {
    "id": 351,
    "name_ru": "Хургада",
    "name_en": "Hurghada",
    "active": true,
    "featured": true,
    "iata": "HRG",
    "country": {
      "id": 3,
      "name_ru": "Египет",
      "name_en": "Egypt",
      "iso2": "EG",
      "active": true
    }
  },
  {
    "id": 352,
    "name_ru": "Эль Гуна",
    "name_en": "El Gouna",
    "active": true,
    "featured": false,
    "iata": "CAI",
    "country": {
      "id": 3,
      "name_ru": "Египет",
      "name_en": "Egypt",
      "iso2": "EG",
      "active": true
    }
  },
  {
    "id": 1045,
    "name_ru": "Макади Бэй",
    "name_en": "Makadi Bay",
    "active": true,
    "featured": false,
    "iata": "HRG",
    "country": {
      "id": 3,
      "name_ru": "Египет",
      "name_en": "Egypt",
      "iso2": "EG",
      "active": true
    }
  },
  {
    "id": 1097,
    "name_ru": "Эль Кусейр",
    "name_en": "El Quseir",
    "active": true,
    "featured": false,
    "iata": "HRG",
    "country": {
      "id": 3,
      "name_ru": "Египет",
      "name_en": "Egypt",
      "iso2": "EG",
      "active": true
    }
  },
  {
    "id": 1156,
    "name_ru": "Сахл Хашиш",
    "name_en": "Sahl Hasheesh",
    "active": true,
    "featured": false,
    "iata": "HRG",
    "country": {
      "id": 3,
      "name_ru": "Египет",
      "name_en": "Egypt",
      "iso2": "EG",
      "active": true
    }
  },
  {
    "id": 1209,
    "name_ru": "Каир",
    "name_en": "Cairo",
    "active": true,
    "featured": false,
    "iata": "CAI",
    "country": {
      "id": 3,
      "name_ru": "Египет",
      "name_en": "Egypt",
      "iso2": "EG",
      "active": true
    }
  },
  {
    "id": 1210,
    "name_ru": "Луксор",
    "name_en": "Luxor",
    "active": true,
    "featured": false,
    "iata": "LXR",
    "country": {
      "id": 3,
      "name_ru": "Египет",
      "name_en": "Egypt",
      "iso2": "EG",
      "active": true
    }
  },
  {
    "id": 1211,
    "name_ru": "Асуан",
    "name_en": "Aswan",
    "active": true,
    "featured": false,
    "iata": "LXR",
    "country": {
      "id": 3,
      "name_ru": "Египет",
      "name_en": "Egypt",
      "iso2": "EG",
      "active": true
    }
  },
  {
    "id": 1212,
    "name_ru": "Александрия",
    "name_en": "Alexandria",
    "active": true,
    "featured": false,
    "iata": "ESF",
    "country": {
      "id": 3,
      "name_ru": "Египет",
      "name_en": "Egypt",
      "iso2": "EG",
      "active": true
    }
  },
  {
    "id": 1213,
    "name_ru": "Исмаилия",
    "name_en": "Ismailia",
    "active": true,
    "featured": false,
    "iata": "CAI",
    "country": {
      "id": 3,
      "name_ru": "Египет",
      "name_en": "Egypt",
      "iso2": "EG",
      "active": true
    }
  },
  {
    "id": 5,
    "name_ru": "Кемер",
    "name_en": "Kemer",
    "active": true,
    "featured": true,
    "iata": "AYT",
    "country": {
      "id": 4,
      "name_ru": "Турция",
      "name_en": "Turkey",
      "iso2": "TR",
      "active": true
    }
  },
  {
    "id": 6,
    "name_ru": "Анталия",
    "name_en": "Antalya",
    "active": true,
    "featured": true,
    "iata": "AYT",
    "country": {
      "id": 4,
      "name_ru": "Турция",
      "name_en": "Turkey",
      "iso2": "TR",
      "active": true
    }
  },
  {
    "id": 1036,
    "name_ru": "Сиде",
    "name_en": "Side",
    "active": true,
    "featured": false,
    "iata": "AYT",
    "country": {
      "id": 4,
      "name_ru": "Турция",
      "name_en": "Turkey",
      "iso2": "TR",
      "active": true
    }
  },
  {
    "id": 1037,
    "name_ru": "Белек",
    "name_en": "Belek",
    "active": true,
    "featured": true,
    "iata": "AYT",
    "country": {
      "id": 4,
      "name_ru": "Турция",
      "name_en": "Turkey",
      "iso2": "TR",
      "active": true
    }
  },
  {
    "id": 1038,
    "name_ru": "Бодрум",
    "name_en": "Bodrum",
    "active": true,
    "featured": false,
    "iata": "BJV",
    "country": {
      "id": 4,
      "name_ru": "Турция",
      "name_en": "Turkey",
      "iso2": "TR",
      "active": true
    }
  },
  {
    "id": 1039,
    "name_ru": "Дидим",
    "name_en": "Didim",
    "active": true,
    "featured": false,
    "iata": "DLM",
    "country": {
      "id": 4,
      "name_ru": "Турция",
      "name_en": "Turkey",
      "iso2": "TR",
      "active": true
    }
  },
  {
    "id": 1041,
    "name_ru": "Кушадасы",
    "name_en": "Kusadasi",
    "active": true,
    "featured": false,
    "iata": "ADB",
    "country": {
      "id": 4,
      "name_ru": "Турция",
      "name_en": "Turkey",
      "iso2": "TR",
      "active": true
    }
  },
  {
    "id": 1042,
    "name_ru": "Мармарис",
    "name_en": "Marmaris",
    "active": true,
    "featured": false,
    "iata": "RHO",
    "country": {
      "id": 4,
      "name_ru": "Турция",
      "name_en": "Turkey",
      "iso2": "TR",
      "active": true
    }
  },
  {
    "id": 1043,
    "name_ru": "Фетхие",
    "name_en": "Fethiye",
    "active": true,
    "featured": false,
    "iata": "DLM",
    "country": {
      "id": 4,
      "name_ru": "Турция",
      "name_en": "Turkey",
      "iso2": "TR",
      "active": true
    }
  },
  {
    "id": 1044,
    "name_ru": "Чешме",
    "name_en": "Cesme",
    "active": true,
    "featured": false,
    "iata": "JKH",
    "country": {
      "id": 4,
      "name_ru": "Турция",
      "name_en": "Turkey",
      "iso2": "TR",
      "active": true
    }
  },
  {
    "id": 1087,
    "name_ru": "Оздере",
    "name_en": "Ozdere",
    "active": true,
    "featured": false,
    "iata": "ADB",
    "country": {
      "id": 4,
      "name_ru": "Турция",
      "name_en": "Turkey",
      "iso2": "TR",
      "active": true
    }
  },
  {
    "id": 1088,
    "name_ru": "Стамбул",
    "name_en": "Istanbul",
    "active": true,
    "featured": true,
    "iata": "IST",
    "country": {
      "id": 4,
      "name_ru": "Турция",
      "name_en": "Turkey",
      "iso2": "TR",
      "active": true
    }
  },
  {
    "id": 1089,
    "name_ru": "Алания",
    "name_en": "Alanya",
    "active": true,
    "featured": false,
    "iata": "GZP",
    "country": {
      "id": 4,
      "name_ru": "Турция",
      "name_en": "Turkey",
      "iso2": "TR",
      "active": true
    }
  },
  {
    "id": 1129,
    "name_ru": "Эрзурум",
    "name_en": "Erzurum",
    "active": true,
    "featured": false,
    "iata": "LWN",
    "country": {
      "id": 4,
      "name_ru": "Турция",
      "name_en": "Turkey",
      "iso2": "TR",
      "active": true
    }
  },
  {
    "id": 1134,
    "name_ru": "Бурса",
    "name_en": "Bursa",
    "active": true,
    "featured": false,
    "iata": "SAW",
    "country": {
      "id": 4,
      "name_ru": "Турция",
      "name_en": "Turkey",
      "iso2": "TR",
      "active": true
    }
  },
  {
    "id": 1152,
    "name_ru": "Измир",
    "name_en": "Izmir",
    "active": true,
    "featured": false,
    "iata": "ADB",
    "country": {
      "id": 4,
      "name_ru": "Турция",
      "name_en": "Turkey",
      "iso2": "TR",
      "active": true
    }
  },
  {
    "id": 1153,
    "name_ru": "Даламан",
    "name_en": "Dalaman",
    "active": true,
    "featured": false,
    "iata": "DLM",
    "country": {
      "id": 4,
      "name_ru": "Турция",
      "name_en": "Turkey",
      "iso2": "TR",
      "active": true
    }
  },
  {
    "id": 1179,
    "name_ru": "Олюдениз",
    "name_en": "Oludeniz",
    "active": true,
    "featured": false,
    "iata": "DLM",
    "country": {
      "id": 4,
      "name_ru": "Турция",
      "name_en": "Turkey",
      "iso2": "TR",
      "active": true
    }
  },
  {
    "id": 1180,
    "name_ru": "Саригерме",
    "name_en": "Sarigerme",
    "active": true,
    "featured": false,
    "iata": "DLM",
    "country": {
      "id": 4,
      "name_ru": "Турция",
      "name_en": "Turkey",
      "iso2": "TR",
      "active": true
    }
  },
  {
    "id": 1214,
    "name_ru": "Каппадокия",
    "name_en": "Cappadocia",
    "active": true,
    "featured": false,
    "iata": "ASR",
    "country": {
      "id": 4,
      "name_ru": "Турция",
      "name_en": "Turkey",
      "iso2": "TR",
      "active": true
    }
  },
  {
    "id": 1215,
    "name_ru": "Памуккале",
    "name_en": "Pamukkale",
    "active": true,
    "featured": false,
    "iata": "IST",
    "country": {
      "id": 4,
      "name_ru": "Турция",
      "name_en": "Turkey",
      "iso2": "TR",
      "active": true
    }
  },
  {
    "id": 1216,
    "name_ru": "Улудаг",
    "name_en": "Uludag",
    "active": true,
    "featured": false,
    "iata": "SAW",
    "country": {
      "id": 4,
      "name_ru": "Турция",
      "name_en": "Turkey",
      "iso2": "TR",
      "active": true
    }
  },
  {
    "id": 1217,
    "name_ru": "Сарыкамыш",
    "name_en": "Sarikamis",
    "active": true,
    "featured": false,
    "iata": "MLX",
    "country": {
      "id": 4,
      "name_ru": "Турция",
      "name_en": "Turkey",
      "iso2": "TR",
      "active": true
    }
  },
  {
    "id": 1229,
    "name_ru": "Болу",
    "name_en": "Bolu",
    "active": true,
    "featured": false,
    "iata": "",
    "country": {
      "id": 4,
      "name_ru": "Турция",
      "name_en": "Turkey",
      "iso2": "TR",
      "active": true
    }
  },
  {
    "id": 222,
    "name_ru": "Вунг Тау",
    "name_en": "Vung Tau",
    "active": true,
    "featured": false,
    "iata": "SGN",
    "country": {
      "id": 27,
      "name_ru": "Вьетнам",
      "name_en": "Vietnam",
      "iso2": "VN",
      "active": true
    }
  },
  {
    "id": 224,
    "name_ru": "Нячанг",
    "name_en": "Nha Trang",
    "active": true,
    "featured": false,
    "iata": "CXR",
    "country": {
      "id": 27,
      "name_ru": "Вьетнам",
      "name_en": "Vietnam",
      "iso2": "VN",
      "active": true
    }
  },
  {
    "id": 225,
    "name_ru": "Остров Кон Дао",
    "name_en": "Con Dao",
    "active": true,
    "featured": false,
    "iata": "VCS",
    "country": {
      "id": 27,
      "name_ru": "Вьетнам",
      "name_en": "Vietnam",
      "iso2": "VN",
      "active": true
    }
  },
  {
    "id": 227,
    "name_ru": "Фантьет",
    "name_en": "Phan Thiet",
    "active": true,
    "featured": false,
    "iata": "SGN",
    "country": {
      "id": 27,
      "name_ru": "Вьетнам",
      "name_en": "Vietnam",
      "iso2": "VN",
      "active": true
    }
  },
  {
    "id": 228,
    "name_ru": "Пху-Куок",
    "name_en": "Phu Quoc",
    "active": true,
    "featured": false,
    "iata": "PQC",
    "country": {
      "id": 27,
      "name_ru": "Вьетнам",
      "name_en": "Vietnam",
      "iso2": "VN",
      "active": true
    }
  },
  {
    "id": 229,
    "name_ru": "Ханой",
    "name_en": "Hanoi",
    "active": true,
    "featured": false,
    "iata": "HAN",
    "country": {
      "id": 27,
      "name_ru": "Вьетнам",
      "name_en": "Vietnam",
      "iso2": "VN",
      "active": true
    }
  },
  {
    "id": 231,
    "name_ru": "Хошимин (Сайгон)",
    "name_en": "Ho Chi Minh",
    "active": true,
    "featured": false,
    "iata": "SGN",
    "country": {
      "id": 27,
      "name_ru": "Вьетнам",
      "name_en": "Vietnam",
      "iso2": "VN",
      "active": true
    }
  },
  {
    "id": 1135,
    "name_ru": "Пхан-Ранг",
    "name_en": "Phan Rang",
    "active": true,
    "featured": false,
    "iata": "CXR",
    "country": {
      "id": 27,
      "name_ru": "Вьетнам",
      "name_en": "Vietnam",
      "iso2": "VN",
      "active": true
    }
  },
  {
    "id": 1183,
    "name_ru": "Дананг",
    "name_en": "Da Nang",
    "active": true,
    "featured": false,
    "iata": "DAD",
    "country": {
      "id": 27,
      "name_ru": "Вьетнам",
      "name_en": "Vietnam",
      "iso2": "VN",
      "active": true
    }
  },
  {
    "id": 1184,
    "name_ru": "Далат",
    "name_en": "Da Lat",
    "active": true,
    "featured": false,
    "iata": "CXR",
    "country": {
      "id": 27,
      "name_ru": "Вьетнам",
      "name_en": "Vietnam",
      "iso2": "VN",
      "active": true
    }
  },
  {
    "id": 1189,
    "name_ru": "Хойан",
    "name_en": "Hoi An",
    "active": true,
    "featured": false,
    "iata": "DAD",
    "country": {
      "id": 27,
      "name_ru": "Вьетнам",
      "name_en": "Vietnam",
      "iso2": "VN",
      "active": true
    }
  },
  {
    "id": 358,
    "name_ru": "Ашкелон",
    "name_en": "Ashkelon",
    "active": true,
    "featured": false,
    "iata": null,
    "country": {
      "id": 39,
      "name_ru": "Израиль",
      "name_en": "Israel",
      "iso2": "IL",
      "active": true
    }
  },
  {
    "id": 361,
    "name_ru": "Герцлия",
    "name_en": "Herzliya",
    "active": true,
    "featured": false,
    "iata": null,
    "country": {
      "id": 39,
      "name_ru": "Израиль",
      "name_en": "Israel",
      "iso2": "IL",
      "active": true
    }
  },
  {
    "id": 362,
    "name_ru": "Иерусалим",
    "name_en": "Jerusalem",
    "active": true,
    "featured": false,
    "iata": null,
    "country": {
      "id": 39,
      "name_ru": "Израиль",
      "name_en": "Israel",
      "iso2": "IL",
      "active": true
    }
  },
  {
    "id": 365,
    "name_ru": "Мёртвое море",
    "name_en": "Dead Sea",
    "active": true,
    "featured": false,
    "iata": null,
    "country": {
      "id": 39,
      "name_ru": "Израиль",
      "name_en": "Israel",
      "iso2": "IL",
      "active": true
    }
  },
  {
    "id": 368,
    "name_ru": "Нетания",
    "name_en": "Netanya",
    "active": true,
    "featured": false,
    "iata": null,
    "country": {
      "id": 39,
      "name_ru": "Израиль",
      "name_en": "Israel",
      "iso2": "IL",
      "active": true
    }
  },
  {
    "id": 370,
    "name_ru": "Тверия",
    "name_en": "Tiberias",
    "active": true,
    "featured": false,
    "iata": null,
    "country": {
      "id": 39,
      "name_ru": "Израиль",
      "name_en": "Israel",
      "iso2": "IL",
      "active": true
    }
  },
  {
    "id": 371,
    "name_ru": "Тель-Авив",
    "name_en": "Tel Aviv",
    "active": true,
    "featured": false,
    "iata": null,
    "country": {
      "id": 39,
      "name_ru": "Израиль",
      "name_en": "Israel",
      "iso2": "IL",
      "active": true
    }
  },
  {
    "id": 372,
    "name_ru": "Хайфа",
    "name_en": "Haifa",
    "active": true,
    "featured": false,
    "iata": null,
    "country": {
      "id": 39,
      "name_ru": "Израиль",
      "name_en": "Israel",
      "iso2": "IL",
      "active": true
    }
  },
  {
    "id": 375,
    "name_ru": "Эйлат",
    "name_en": "Eilat",
    "active": true,
    "featured": false,
    "iata": null,
    "country": {
      "id": 39,
      "name_ru": "Израиль",
      "name_en": "Israel",
      "iso2": "IL",
      "active": true
    }
  },
  {
    "id": 1227,
    "name_ru": "Акко",
    "name_en": "Acco",
    "active": true,
    "featured": false,
    "iata": "",
    "country": {
      "id": 39,
      "name_ru": "Израиль",
      "name_en": "Israel",
      "iso2": "IL",
      "active": true
    }
  },
  {
    "id": 400,
    "name_ru": "Бали",
    "name_en": "Bali",
    "active": true,
    "featured": false,
    "iata": null,
    "country": {
      "id": 41,
      "name_ru": "Индонезия",
      "name_en": "Indonesia",
      "iso2": "ID",
      "active": true
    }
  },
  {
    "id": 403,
    "name_ru": "Джимбаран",
    "name_en": "Jimbaran",
    "active": true,
    "featured": false,
    "iata": null,
    "country": {
      "id": 41,
      "name_ru": "Индонезия",
      "name_en": "Indonesia",
      "iso2": "ID",
      "active": true
    }
  },
  {
    "id": 405,
    "name_ru": "Кута ",
    "name_en": "Kuta",
    "active": true,
    "featured": false,
    "iata": null,
    "country": {
      "id": 41,
      "name_ru": "Индонезия",
      "name_en": "Indonesia",
      "iso2": "ID",
      "active": true
    }
  },
  {
    "id": 406,
    "name_ru": " Легиан",
    "name_en": "Legian Area",
    "active": true,
    "featured": false,
    "iata": null,
    "country": {
      "id": 41,
      "name_ru": "Индонезия",
      "name_en": "Indonesia",
      "iso2": "ID",
      "active": true
    }
  },
  {
    "id": 407,
    "name_ru": "Ловина",
    "name_en": "Lovina",
    "active": true,
    "featured": false,
    "iata": null,
    "country": {
      "id": 41,
      "name_ru": "Индонезия",
      "name_en": "Indonesia",
      "iso2": "ID",
      "active": true
    }
  },
  {
    "id": 408,
    "name_ru": "Ломбок",
    "name_en": "Lombok",
    "active": true,
    "featured": false,
    "iata": null,
    "country": {
      "id": 41,
      "name_ru": "Индонезия",
      "name_en": "Indonesia",
      "iso2": "ID",
      "active": true
    }
  },
  {
    "id": 409,
    "name_ru": "Нуса Дуа ",
    "name_en": "Nusa Dua",
    "active": true,
    "featured": false,
    "iata": null,
    "country": {
      "id": 41,
      "name_ru": "Индонезия",
      "name_en": "Indonesia",
      "iso2": "ID",
      "active": true
    }
  },
  {
    "id": 411,
    "name_ru": "Санур ",
    "name_en": "Sanur",
    "active": true,
    "featured": false,
    "iata": null,
    "country": {
      "id": 41,
      "name_ru": "Индонезия",
      "name_en": "Indonesia",
      "iso2": "ID",
      "active": true
    }
  },
  {
    "id": 412,
    "name_ru": "Семиньяк",
    "name_en": "Seminyak",
    "active": true,
    "featured": false,
    "iata": null,
    "country": {
      "id": 41,
      "name_ru": "Индонезия",
      "name_en": "Indonesia",
      "iso2": "ID",
      "active": true
    }
  },
  {
    "id": 414,
    "name_ru": "Танжунг Беноа",
    "name_en": "Tanjung Benoa",
    "active": true,
    "featured": false,
    "iata": null,
    "country": {
      "id": 41,
      "name_ru": "Индонезия",
      "name_en": "Indonesia",
      "iso2": "ID",
      "active": true
    }
  },
  {
    "id": 415,
    "name_ru": "Убуд",
    "name_en": "Ubud",
    "active": true,
    "featured": false,
    "iata": null,
    "country": {
      "id": 41,
      "name_ru": "Индонезия",
      "name_en": "Indonesia",
      "iso2": "ID",
      "active": true
    }
  },
  {
    "id": 416,
    "name_ru": "Улувату",
    "name_en": "Uluwatu",
    "active": true,
    "featured": false,
    "iata": null,
    "country": {
      "id": 41,
      "name_ru": "Индонезия",
      "name_en": "Indonesia",
      "iso2": "ID",
      "active": true
    }
  },
  {
    "id": 417,
    "name_ru": "Унгасан",
    "name_en": "Ungasan",
    "active": true,
    "featured": false,
    "iata": null,
    "country": {
      "id": 41,
      "name_ru": "Индонезия",
      "name_en": "Indonesia",
      "iso2": "ID",
      "active": true
    }
  },
  {
    "id": 1225,
    "name_ru": "Кандидаса",
    "name_en": "Candidaca",
    "active": true,
    "featured": false,
    "iata": "",
    "country": {
      "id": 41,
      "name_ru": "Индонезия",
      "name_en": "Indonesia",
      "iso2": "ID",
      "active": true
    }
  },
  {
    "id": 1226,
    "name_ru": "Пекату",
    "name_en": "Pecatu",
    "active": true,
    "featured": false,
    "iata": "",
    "country": {
      "id": 41,
      "name_ru": "Индонезия",
      "name_en": "Indonesia",
      "iso2": "ID",
      "active": true
    }
  },
  {
    "id": 418,
    "name_ru": "Акаба",
    "name_en": "Aqaba",
    "active": true,
    "featured": false,
    "iata": "AQJ",
    "country": {
      "id": 42,
      "name_ru": "Иордания",
      "name_en": "Jordan",
      "iso2": "JO",
      "active": true
    }
  },
  {
    "id": 419,
    "name_ru": "Амман",
    "name_en": "Amman",
    "active": true,
    "featured": false,
    "iata": null,
    "country": {
      "id": 42,
      "name_ru": "Иордания",
      "name_en": "Jordan",
      "iso2": "JO",
      "active": true
    }
  },
  {
    "id": 421,
    "name_ru": "Петра",
    "name_en": "Petra",
    "active": true,
    "featured": false,
    "iata": null,
    "country": {
      "id": 42,
      "name_ru": "Иордания",
      "name_en": "Jordan",
      "iso2": "JO",
      "active": true
    }
  },
  {
    "id": 1103,
    "name_ru": "Мёртвое море (Иордания)",
    "name_en": "Dead Sea (Jordan)",
    "active": true,
    "featured": false,
    "iata": null,
    "country": {
      "id": 42,
      "name_ru": "Иордания",
      "name_en": "Jordan",
      "iso2": "JO",
      "active": true
    }
  },
  {
    "id": 1104,
    "name_ru": "Маан",
    "name_en": "Ma'an",
    "active": true,
    "featured": false,
    "iata": null,
    "country": {
      "id": 42,
      "name_ru": "Иордания",
      "name_en": "Jordan",
      "iso2": "JO",
      "active": true
    }
  },
  {
    "id": 438,
    "name_ru": "Бока Чика",
    "name_en": "Boca Chica",
    "active": true,
    "featured": false,
    "iata": "SDQ",
    "country": {
      "id": 47,
      "name_ru": "Доминикана",
      "name_en": "Dominican Republic",
      "iso2": "DO",
      "active": true
    }
  },
  {
    "id": 440,
    "name_ru": "Ла Романа",
    "name_en": "La Romana",
    "active": true,
    "featured": false,
    "iata": "LRM",
    "country": {
      "id": 47,
      "name_ru": "Доминикана",
      "name_en": "Dominican Republic",
      "iso2": "DO",
      "active": true
    }
  },
  {
    "id": 441,
    "name_ru": "Пунта Кана",
    "name_en": "Punta Cana",
    "active": true,
    "featured": true,
    "iata": "PUJ",
    "country": {
      "id": 47,
      "name_ru": "Доминикана",
      "name_en": "Dominican Republic",
      "iso2": "DO",
      "active": true
    }
  },
  {
    "id": 442,
    "name_ru": "Пуэрто Плата",
    "name_en": "Puerto Plata",
    "active": true,
    "featured": false,
    "iata": "POP",
    "country": {
      "id": 47,
      "name_ru": "Доминикана",
      "name_en": "Dominican Republic",
      "iso2": "DO",
      "active": true
    }
  },
  {
    "id": 443,
    "name_ru": "Самана",
    "name_en": "Samana",
    "active": true,
    "featured": false,
    "iata": "AZS",
    "country": {
      "id": 47,
      "name_ru": "Доминикана",
      "name_en": "Dominican Republic",
      "iso2": "DO",
      "active": true
    }
  },
  {
    "id": 444,
    "name_ru": "Санто-Доминго",
    "name_en": "Santo Domingo",
    "active": true,
    "featured": false,
    "iata": "SDQ",
    "country": {
      "id": 47,
      "name_ru": "Доминикана",
      "name_en": "Dominican Republic",
      "iso2": "DO",
      "active": true
    }
  },
  {
    "id": 446,
    "name_ru": "Уверо Альто",
    "name_en": "Uvero Alto",
    "active": true,
    "featured": false,
    "iata": "PUJ",
    "country": {
      "id": 47,
      "name_ru": "Доминикана",
      "name_en": "Dominican Republic",
      "iso2": "DO",
      "active": true
    }
  },
  {
    "id": 447,
    "name_ru": "Хуан Долио",
    "name_en": "Juan Dolio",
    "active": true,
    "featured": false,
    "iata": "SDQ",
    "country": {
      "id": 47,
      "name_ru": "Доминикана",
      "name_en": "Dominican Republic",
      "iso2": "DO",
      "active": true
    }
  },
  {
    "id": 1155,
    "name_ru": "Кап Кана",
    "name_en": "Cap Cana ",
    "active": true,
    "featured": false,
    "iata": "PUJ",
    "country": {
      "id": 47,
      "name_ru": "Доминикана",
      "name_en": "Dominican Republic",
      "iso2": "DO",
      "active": true
    }
  },
  {
    "id": 468,
    "name_ru": "Айа-Напа",
    "name_en": "Ayia Napa",
    "active": true,
    "featured": false,
    "iata": "LCA",
    "country": {
      "id": 53,
      "name_ru": "Кипр",
      "name_en": "Cyprus",
      "iso2": "CY",
      "active": true
    }
  },
  {
    "id": 470,
    "name_ru": "Ларнака",
    "name_en": "Larnaca",
    "active": true,
    "featured": false,
    "iata": "LCA",
    "country": {
      "id": 53,
      "name_ru": "Кипр",
      "name_en": "Cyprus",
      "iso2": "CY",
      "active": true
    }
  },
  {
    "id": 471,
    "name_ru": "Полис",
    "name_en": "Polis",
    "active": true,
    "featured": false,
    "iata": "PFO",
    "country": {
      "id": 53,
      "name_ru": "Кипр",
      "name_en": "Cyprus",
      "iso2": "CY",
      "active": true
    }
  },
  {
    "id": 472,
    "name_ru": "Лимасол",
    "name_en": "Limassol",
    "active": true,
    "featured": false,
    "iata": "PFO",
    "country": {
      "id": 53,
      "name_ru": "Кипр",
      "name_en": "Cyprus",
      "iso2": "CY",
      "active": true
    }
  },
  {
    "id": 473,
    "name_ru": "Никосия",
    "name_en": "Nicosia",
    "active": true,
    "featured": false,
    "iata": "LCA",
    "country": {
      "id": 53,
      "name_ru": "Кипр",
      "name_en": "Cyprus",
      "iso2": "CY",
      "active": true
    }
  },
  {
    "id": 474,
    "name_ru": "Пафос",
    "name_en": "Paphos",
    "active": true,
    "featured": false,
    "iata": "PFO",
    "country": {
      "id": 53,
      "name_ru": "Кипр",
      "name_en": "Cyprus",
      "iso2": "CY",
      "active": true
    }
  },
  {
    "id": 475,
    "name_ru": "Протарас",
    "name_en": "Protaras",
    "active": true,
    "featured": false,
    "iata": "ECN",
    "country": {
      "id": 53,
      "name_ru": "Кипр",
      "name_en": "Cyprus",
      "iso2": "CY",
      "active": true
    }
  },
  {
    "id": 1145,
    "name_ru": "Писсури",
    "name_en": "Pissouri",
    "active": true,
    "featured": false,
    "iata": "PFO",
    "country": {
      "id": 53,
      "name_ru": "Кипр",
      "name_en": "Cyprus",
      "iso2": "CY",
      "active": true
    }
  },
  {
    "id": 481,
    "name_ru": "Гуанчжоу",
    "name_en": "Guangzhou",
    "active": true,
    "featured": false,
    "iata": null,
    "country": {
      "id": 54,
      "name_ru": "Китай",
      "name_en": "China",
      "iso2": "CN",
      "active": true
    }
  },
  {
    "id": 484,
    "name_ru": "о.Хайнань",
    "name_en": "Haynan",
    "active": true,
    "featured": false,
    "iata": null,
    "country": {
      "id": 54,
      "name_ru": "Китай",
      "name_en": "China",
      "iso2": "CN",
      "active": true
    }
  },
  {
    "id": 485,
    "name_ru": "Пекин",
    "name_en": "Beijing",
    "active": true,
    "featured": false,
    "iata": null,
    "country": {
      "id": 54,
      "name_ru": "Китай",
      "name_en": "China",
      "iso2": "CN",
      "active": true
    }
  },
  {
    "id": 490,
    "name_ru": "Шанхай",
    "name_en": "Shanghai",
    "active": true,
    "featured": false,
    "iata": null,
    "country": {
      "id": 54,
      "name_ru": "Китай",
      "name_en": "China",
      "iso2": "CN",
      "active": true
    }
  },
  {
    "id": 1164,
    "name_ru": "Санья",
    "name_en": "SANYA",
    "active": true,
    "featured": false,
    "iata": null,
    "country": {
      "id": 54,
      "name_ru": "Китай",
      "name_en": "China",
      "iso2": "CN",
      "active": true
    }
  },
  {
    "id": 512,
    "name_ru": "Варадеро",
    "name_en": "Varadero",
    "active": true,
    "featured": true,
    "iata": "VRA",
    "country": {
      "id": 57,
      "name_ru": "Куба",
      "name_en": "Cuba",
      "iso2": "CU",
      "active": true
    }
  },
  {
    "id": 513,
    "name_ru": "Гавана",
    "name_en": "Havana",
    "active": true,
    "featured": false,
    "iata": "HAV",
    "country": {
      "id": 57,
      "name_ru": "Куба",
      "name_en": "Cuba",
      "iso2": "CU",
      "active": true
    }
  },
  {
    "id": 514,
    "name_ru": "Кайо Ларго",
    "name_en": "Cayo Largo",
    "active": true,
    "featured": false,
    "iata": "CYO",
    "country": {
      "id": 57,
      "name_ru": "Куба",
      "name_en": "Cuba",
      "iso2": "CU",
      "active": true
    }
  },
  {
    "id": 515,
    "name_ru": "Кайо Энсеначос",
    "name_en": "Cayo Ensenachos",
    "active": true,
    "featured": false,
    "iata": "CCC",
    "country": {
      "id": 57,
      "name_ru": "Куба",
      "name_en": "Cuba",
      "iso2": "CU",
      "active": true
    }
  },
  {
    "id": 516,
    "name_ru": "Кайо Гильермо",
    "name_en": "Cayo Guillermo",
    "active": true,
    "featured": false,
    "iata": "CCC",
    "country": {
      "id": 57,
      "name_ru": "Куба",
      "name_en": "Cuba",
      "iso2": "CU",
      "active": true
    }
  },
  {
    "id": 517,
    "name_ru": "Кайо Коко",
    "name_en": "Cayo Coco",
    "active": true,
    "featured": false,
    "iata": "CCC",
    "country": {
      "id": 57,
      "name_ru": "Куба",
      "name_en": "Cuba",
      "iso2": "CU",
      "active": true
    }
  },
  {
    "id": 519,
    "name_ru": "Ольгин",
    "name_en": "Holguin",
    "active": true,
    "featured": false,
    "iata": null,
    "country": {
      "id": 57,
      "name_ru": "Куба",
      "name_en": "Cuba",
      "iso2": "CU",
      "active": true
    }
  },
  {
    "id": 1098,
    "name_ru": "Кайо Санта-Мария",
    "name_en": "Cayo Santa Maria",
    "active": true,
    "featured": false,
    "iata": "SNU",
    "country": {
      "id": 57,
      "name_ru": "Куба",
      "name_en": "Cuba",
      "iso2": "CU",
      "active": true
    }
  },
  {
    "id": 1205,
    "name_ru": "Плайя-Эсмеральда",
    "name_en": "Playa Esmeralda",
    "active": true,
    "featured": false,
    "iata": "HOG",
    "country": {
      "id": 57,
      "name_ru": "Куба",
      "name_en": "Cuba",
      "iso2": "CU",
      "active": true
    }
  },
  {
    "id": 1206,
    "name_ru": "Сантьяго-де-Куба",
    "name_en": "Santiago de Cuba",
    "active": true,
    "featured": false,
    "iata": "SCU",
    "country": {
      "id": 57,
      "name_ru": "Куба",
      "name_en": "Cuba",
      "iso2": "CU",
      "active": true
    }
  },
  {
    "id": 1207,
    "name_ru": "Тринидад",
    "name_en": "Trinidad",
    "active": true,
    "featured": false,
    "iata": "SNU",
    "country": {
      "id": 57,
      "name_ru": "Куба",
      "name_en": "Cuba",
      "iso2": "CU",
      "active": true
    }
  },
  {
    "id": 681,
    "name_ru": "Восточное побережье",
    "name_en": "East Coast",
    "active": true,
    "featured": false,
    "iata": null,
    "country": {
      "id": 66,
      "name_ru": "Маврикий",
      "name_en": "Mauritius",
      "iso2": "MU",
      "active": true
    }
  },
  {
    "id": 685,
    "name_ru": "Северное побережье",
    "name_en": "North Coast",
    "active": true,
    "featured": false,
    "iata": null,
    "country": {
      "id": 66,
      "name_ru": "Маврикий",
      "name_en": "Mauritius",
      "iso2": "MU",
      "active": true
    }
  },
  {
    "id": 687,
    "name_ru": "Западное побережье ",
    "name_en": "West coast ",
    "active": true,
    "featured": false,
    "iata": null,
    "country": {
      "id": 66,
      "name_ru": "Маврикий",
      "name_en": "Mauritius",
      "iso2": "MU",
      "active": true
    }
  },
  {
    "id": 1105,
    "name_ru": "Южное побережье ",
    "name_en": "South Coast ",
    "active": true,
    "featured": false,
    "iata": null,
    "country": {
      "id": 66,
      "name_ru": "Маврикий",
      "name_en": "Mauritius",
      "iso2": "MU",
      "active": true
    }
  },
  {
    "id": 1146,
    "name_ru": " Северо-Западное побережье",
    "name_en": " North West Coast",
    "active": true,
    "featured": false,
    "iata": null,
    "country": {
      "id": 66,
      "name_ru": "Маврикий",
      "name_en": "Mauritius",
      "iso2": "MU",
      "active": true
    }
  },
  {
    "id": 1147,
    "name_ru": "Юго-Западное побережье",
    "name_en": "South West Coast",
    "active": true,
    "featured": false,
    "iata": null,
    "country": {
      "id": 66,
      "name_ru": "Маврикий",
      "name_en": "Mauritius",
      "iso2": "MU",
      "active": true
    }
  },
  {
    "id": 1148,
    "name_ru": " Северо-Восточное побережье",
    "name_en": "North East Coast",
    "active": true,
    "featured": false,
    "iata": null,
    "country": {
      "id": 66,
      "name_ru": "Маврикий",
      "name_en": "Mauritius",
      "iso2": "MU",
      "active": true
    }
  },
  {
    "id": 1230,
    "name_ru": "Юго-Восточное побережье",
    "name_en": "South East Coast",
    "active": true,
    "featured": false,
    "iata": "",
    "country": {
      "id": 66,
      "name_ru": "Маврикий",
      "name_en": "Mauritius",
      "iso2": "MU",
      "active": true
    }
  },
  {
    "id": 779,
    "name_ru": "Адду Атолл",
    "name_en": "Addu Atoll",
    "active": true,
    "featured": false,
    "iata": "MLE",
    "country": {
      "id": 71,
      "name_ru": "Мальдивы",
      "name_en": "Maldives",
      "iso2": "MV",
      "active": true
    }
  },
  {
    "id": 780,
    "name_ru": "Ари Атолл",
    "name_en": "Ari Atoll",
    "active": true,
    "featured": false,
    "iata": "MLE",
    "country": {
      "id": 71,
      "name_ru": "Мальдивы",
      "name_en": "Maldives",
      "iso2": "MV",
      "active": true
    }
  },
  {
    "id": 781,
    "name_ru": "Баа Атолл",
    "name_en": "Baa Atoll",
    "active": true,
    "featured": false,
    "iata": "MLE",
    "country": {
      "id": 71,
      "name_ru": "Мальдивы",
      "name_en": "Maldives",
      "iso2": "MV",
      "active": true
    }
  },
  {
    "id": 782,
    "name_ru": "Даалу Атолл",
    "name_en": "Dhaalu Atoll",
    "active": true,
    "featured": false,
    "iata": "MLE",
    "country": {
      "id": 71,
      "name_ru": "Мальдивы",
      "name_en": "Maldives",
      "iso2": "MV",
      "active": true
    }
  },
  {
    "id": 783,
    "name_ru": "Лааму Атолл",
    "name_en": "Laamu Atoll",
    "active": true,
    "featured": false,
    "iata": "MLE",
    "country": {
      "id": 71,
      "name_ru": "Мальдивы",
      "name_en": "Maldives",
      "iso2": "MV",
      "active": true
    }
  },
  {
    "id": 784,
    "name_ru": "Лавьяни Атолл",
    "name_en": "Lhaviyani Atoll",
    "active": true,
    "featured": false,
    "iata": "MLE",
    "country": {
      "id": 71,
      "name_ru": "Мальдивы",
      "name_en": "Maldives",
      "iso2": "MV",
      "active": true
    }
  },
  {
    "id": 785,
    "name_ru": "Мале",
    "name_en": "Male",
    "active": true,
    "featured": false,
    "iata": "MLE",
    "country": {
      "id": 71,
      "name_ru": "Мальдивы",
      "name_en": "Maldives",
      "iso2": "MV",
      "active": true
    }
  },
  {
    "id": 786,
    "name_ru": "Мальдивы",
    "name_en": "Maldives",
    "active": true,
    "featured": true,
    "iata": "MLE",
    "country": {
      "id": 71,
      "name_ru": "Мальдивы",
      "name_en": "Maldives",
      "iso2": "MV",
      "active": true
    }
  },
  {
    "id": 787,
    "name_ru": "Мииму Атолл",
    "name_en": "Meemu Atoll",
    "active": true,
    "featured": false,
    "iata": "MLE",
    "country": {
      "id": 71,
      "name_ru": "Мальдивы",
      "name_en": "Maldives",
      "iso2": "MV",
      "active": true
    }
  },
  {
    "id": 788,
    "name_ru": "Нону Атолл",
    "name_en": "Noonu Atoll",
    "active": true,
    "featured": false,
    "iata": "MLE",
    "country": {
      "id": 71,
      "name_ru": "Мальдивы",
      "name_en": "Maldives",
      "iso2": "MV",
      "active": true
    }
  },
  {
    "id": 835,
    "name_ru": "Раа Атолл",
    "name_en": "Raa Atoll",
    "active": true,
    "featured": false,
    "iata": "MLE",
    "country": {
      "id": 71,
      "name_ru": "Мальдивы",
      "name_en": "Maldives",
      "iso2": "MV",
      "active": true
    }
  },
  {
    "id": 837,
    "name_ru": "Фаафу Атолл",
    "name_en": "Faafu Atoll",
    "active": true,
    "featured": false,
    "iata": "MLE",
    "country": {
      "id": 71,
      "name_ru": "Мальдивы",
      "name_en": "Maldives",
      "iso2": "MV",
      "active": true
    }
  },
  {
    "id": 838,
    "name_ru": "Хаа Алиф Атолл",
    "name_en": "Haa Alif Atoll",
    "active": true,
    "featured": false,
    "iata": "MLE",
    "country": {
      "id": 71,
      "name_ru": "Мальдивы",
      "name_en": "Maldives",
      "iso2": "MV",
      "active": true
    }
  },
  {
    "id": 839,
    "name_ru": "Шавияни Атолл",
    "name_en": "Shaviyani Atoll",
    "active": true,
    "featured": false,
    "iata": "MLE",
    "country": {
      "id": 71,
      "name_ru": "Мальдивы",
      "name_en": "Maldives",
      "iso2": "MV",
      "active": true
    }
  },
  {
    "id": 1091,
    "name_ru": "Гаафу Алиф Атолл",
    "name_en": "Gaafu Alif Atoll",
    "active": true,
    "featured": false,
    "iata": "MLE",
    "country": {
      "id": 71,
      "name_ru": "Мальдивы",
      "name_en": "Maldives",
      "iso2": "MV",
      "active": true
    }
  },
  {
    "id": 1092,
    "name_ru": "Северный Ари Атолл",
    "name_en": "North Ari Atoll",
    "active": true,
    "featured": false,
    "iata": "MLE",
    "country": {
      "id": 71,
      "name_ru": "Мальдивы",
      "name_en": "Maldives",
      "iso2": "MV",
      "active": true
    }
  },
  {
    "id": 1093,
    "name_ru": "Северный Мале Атолл",
    "name_en": "North Male Atoll",
    "active": true,
    "featured": false,
    "iata": "MLE",
    "country": {
      "id": 71,
      "name_ru": "Мальдивы",
      "name_en": "Maldives",
      "iso2": "MV",
      "active": true
    }
  },
  {
    "id": 1094,
    "name_ru": "Расду Атолл",
    "name_en": "Rasdhoo Atoll",
    "active": true,
    "featured": false,
    "iata": "MLE",
    "country": {
      "id": 71,
      "name_ru": "Мальдивы",
      "name_en": "Maldives",
      "iso2": "MV",
      "active": true
    }
  },
  {
    "id": 1095,
    "name_ru": "Южный Ари Атолл",
    "name_en": "South Ari Atoll",
    "active": true,
    "featured": false,
    "iata": "MLE",
    "country": {
      "id": 71,
      "name_ru": "Мальдивы",
      "name_en": "Maldives",
      "iso2": "MV",
      "active": true
    }
  },
  {
    "id": 1096,
    "name_ru": "Южный Мале Атолл",
    "name_en": "South Male Atoll",
    "active": true,
    "featured": false,
    "iata": "MLE",
    "country": {
      "id": 71,
      "name_ru": "Мальдивы",
      "name_en": "Maldives",
      "iso2": "MV",
      "active": true
    }
  },
  {
    "id": 1223,
    "name_ru": "Вааву Атолл",
    "name_en": "Vaavu Atoll",
    "active": true,
    "featured": false,
    "iata": "MLE",
    "country": {
      "id": 71,
      "name_ru": "Мальдивы",
      "name_en": "Maldives",
      "iso2": "MV",
      "active": true
    }
  },
  {
    "id": 998,
    "name_ru": "Агадир",
    "name_en": "Agadir",
    "active": true,
    "featured": false,
    "iata": "AGA",
    "country": {
      "id": 80,
      "name_ru": "Марокко",
      "name_en": "Morocco",
      "iso2": "MA",
      "active": true
    }
  },
  {
    "id": 1001,
    "name_ru": "Касабланка",
    "name_en": "Casablanca",
    "active": true,
    "featured": false,
    "iata": "CMN",
    "country": {
      "id": 80,
      "name_ru": "Марокко",
      "name_en": "Morocco",
      "iso2": "MA",
      "active": true
    }
  },
  {
    "id": 1002,
    "name_ru": "Марракеш",
    "name_en": "Marrakech",
    "active": true,
    "featured": false,
    "iata": "RAK",
    "country": {
      "id": 80,
      "name_ru": "Марокко",
      "name_en": "Morocco",
      "iso2": "MA",
      "active": true
    }
  },
  {
    "id": 1197,
    "name_ru": "Танжер",
    "name_en": "Tangier",
    "active": true,
    "featured": false,
    "iata": "TNG",
    "country": {
      "id": 80,
      "name_ru": "Марокко",
      "name_en": "Morocco",
      "iso2": "MA",
      "active": true
    }
  },
  {
    "id": 1200,
    "name_ru": "Фес",
    "name_en": "Fes",
    "active": true,
    "featured": false,
    "iata": "FEZ",
    "country": {
      "id": 80,
      "name_ru": "Марокко",
      "name_en": "Morocco",
      "iso2": "MA",
      "active": true
    }
  },
  {
    "id": 1201,
    "name_ru": "Эссуэйра",
    "name_en": " Essaouira",
    "active": true,
    "featured": false,
    "iata": "ESU",
    "country": {
      "id": 80,
      "name_ru": "Марокко",
      "name_en": "Morocco",
      "iso2": "MA",
      "active": true
    }
  },
  {
    "id": 1202,
    "name_ru": "Эль-Джадида",
    "name_en": "El Jadida",
    "active": true,
    "featured": false,
    "iata": "CMN",
    "country": {
      "id": 80,
      "name_ru": "Марокко",
      "name_en": "Morocco",
      "iso2": "MA",
      "active": true
    }
  },
  {
    "id": 1203,
    "name_ru": "Эрфуд",
    "name_en": "Erfoud",
    "active": true,
    "featured": false,
    "iata": "FEZ",
    "country": {
      "id": 80,
      "name_ru": "Марокко",
      "name_en": "Morocco",
      "iso2": "MA",
      "active": true
    }
  },
  {
    "id": 1204,
    "name_ru": "Рабат",
    "name_en": "Rabat",
    "active": true,
    "featured": false,
    "iata": "RBA",
    "country": {
      "id": 80,
      "name_ru": "Марокко",
      "name_en": "Morocco",
      "iso2": "MA",
      "active": true
    }
  },
  {
    "id": 1011,
    "name_ru": "Канкун",
    "name_en": "Cancun",
    "active": true,
    "featured": true,
    "iata": "CUN",
    "country": {
      "id": 81,
      "name_ru": "Мексика",
      "name_en": "Mexico",
      "iso2": "MX",
      "active": true
    }
  },
  {
    "id": 1014,
    "name_ru": "Мехико",
    "name_en": "Mexico",
    "active": true,
    "featured": false,
    "iata": "MEX",
    "country": {
      "id": 81,
      "name_ru": "Мексика",
      "name_en": "Mexico",
      "iso2": "MX",
      "active": true
    }
  },
  {
    "id": 1015,
    "name_ru": "о. Косумель",
    "name_en": "Cozumel",
    "active": true,
    "featured": false,
    "iata": "CZM",
    "country": {
      "id": 81,
      "name_ru": "Мексика",
      "name_en": "Mexico",
      "iso2": "MX",
      "active": true
    }
  },
  {
    "id": 1016,
    "name_ru": "Плайя дель Кармен",
    "name_en": "Playa del Carmen",
    "active": true,
    "featured": false,
    "iata": "CZM",
    "country": {
      "id": 81,
      "name_ru": "Мексика",
      "name_en": "Mexico",
      "iso2": "MX",
      "active": true
    }
  },
  {
    "id": 1018,
    "name_ru": "Ривьера Майя",
    "name_en": "Riviera Maya",
    "active": true,
    "featured": false,
    "iata": "CZM",
    "country": {
      "id": 81,
      "name_ru": "Мексика",
      "name_en": "Mexico",
      "iso2": "MX",
      "active": true
    }
  },
  {
    "id": 1019,
    "name_ru": "Тулум",
    "name_en": "Tulum",
    "active": true,
    "featured": false,
    "iata": "CZM",
    "country": {
      "id": 81,
      "name_ru": "Мексика",
      "name_en": "Mexico",
      "iso2": "MX",
      "active": true
    }
  },
  {
    "id": 1080,
    "name_ru": "Пуэрто Морелос",
    "name_en": "Puerto Morelos",
    "active": true,
    "featured": false,
    "iata": "MFE",
    "country": {
      "id": 81,
      "name_ru": "Мексика",
      "name_en": "Mexico",
      "iso2": "MX",
      "active": true
    }
  },
  {
    "id": 1099,
    "name_ru": "Акумаль",
    "name_en": "Akumal",
    "active": true,
    "featured": false,
    "iata": "CZM",
    "country": {
      "id": 81,
      "name_ru": "Мексика",
      "name_en": "Mexico",
      "iso2": "MX",
      "active": true
    }
  },
  {
    "id": 1130,
    "name_ru": "Пуэрто Авентурас",
    "name_en": "Puerto Aventuras",
    "active": true,
    "featured": false,
    "iata": "CZM",
    "country": {
      "id": 81,
      "name_ru": "Мексика",
      "name_en": "Mexico",
      "iso2": "MX",
      "active": true
    }
  },
  {
    "id": 1046,
    "name_ru": "Бангкок",
    "name_en": "Bangkok",
    "active": true,
    "featured": false,
    "iata": "DMK",
    "country": {
      "id": 87,
      "name_ru": "Таиланд",
      "name_en": "Thailand",
      "iso2": "TH",
      "active": true
    }
  },
  {
    "id": 1047,
    "name_ru": "Паттайя",
    "name_en": "Pattaya",
    "active": true,
    "featured": false,
    "iata": "HHQ",
    "country": {
      "id": 87,
      "name_ru": "Таиланд",
      "name_en": "Thailand",
      "iso2": "TH",
      "active": true
    }
  },
  {
    "id": 1048,
    "name_ru": "Пхукет",
    "name_en": "Phuket",
    "active": true,
    "featured": true,
    "iata": "HKT",
    "country": {
      "id": 87,
      "name_ru": "Таиланд",
      "name_en": "Thailand",
      "iso2": "TH",
      "active": true
    }
  },
  {
    "id": 1049,
    "name_ru": "Самуи",
    "name_en": "Koh Samui",
    "active": true,
    "featured": false,
    "iata": "USM",
    "country": {
      "id": 87,
      "name_ru": "Таиланд",
      "name_en": "Thailand",
      "iso2": "TH",
      "active": true
    }
  },
  {
    "id": 1090,
    "name_ru": "Као Лак",
    "name_en": "Khao Lak",
    "active": true,
    "featured": false,
    "iata": "HKT",
    "country": {
      "id": 87,
      "name_ru": "Таиланд",
      "name_en": "Thailand",
      "iso2": "TH",
      "active": true
    }
  },
  {
    "id": 1122,
    "name_ru": "Ко Чанг",
    "name_en": "Koh Chang",
    "active": true,
    "featured": false,
    "iata": "BKK",
    "country": {
      "id": 87,
      "name_ru": "Таиланд",
      "name_en": "Thailand",
      "iso2": "TH",
      "active": true
    }
  },
  {
    "id": 1128,
    "name_ru": "Краби",
    "name_en": "Krabi",
    "active": true,
    "featured": false,
    "iata": "KBV",
    "country": {
      "id": 87,
      "name_ru": "Таиланд",
      "name_en": "Thailand",
      "iso2": "TH",
      "active": true
    }
  },
  {
    "id": 1131,
    "name_ru": "Хуа Хин",
    "name_en": "Hua Hin",
    "active": true,
    "featured": false,
    "iata": "HHQ",
    "country": {
      "id": 87,
      "name_ru": "Таиланд",
      "name_en": "Thailand",
      "iso2": "TH",
      "active": true
    }
  },
  {
    "id": 1132,
    "name_ru": "Ко Панган",
    "name_en": "Koh Pha Ngan",
    "active": true,
    "featured": false,
    "iata": "USM",
    "country": {
      "id": 87,
      "name_ru": "Таиланд",
      "name_en": "Thailand",
      "iso2": "TH",
      "active": true
    }
  },
  {
    "id": 1133,
    "name_ru": "Ко Самет",
    "name_en": "Koh Samet",
    "active": true,
    "featured": false,
    "iata": "BKK",
    "country": {
      "id": 87,
      "name_ru": "Таиланд",
      "name_en": "Thailand",
      "iso2": "TH",
      "active": true
    }
  },
  {
    "id": 1190,
    "name_ru": "Чианг Май",
    "name_en": "Chiang Mai",
    "active": true,
    "featured": false,
    "iata": "CNX",
    "country": {
      "id": 87,
      "name_ru": "Таиланд",
      "name_en": "Thailand",
      "iso2": "TH",
      "active": true
    }
  },
  {
    "id": 1191,
    "name_ru": "Пхи-Пхи",
    "name_en": "Phi Phi",
    "active": true,
    "featured": false,
    "iata": "PHZ",
    "country": {
      "id": 87,
      "name_ru": "Таиланд",
      "name_en": "Thailand",
      "iso2": "TH",
      "active": true
    }
  },
  {
    "id": 1192,
    "name_ru": "Чианг Рай",
    "name_en": "Chiang Rai",
    "active": true,
    "featured": false,
    "iata": "CEI",
    "country": {
      "id": 87,
      "name_ru": "Таиланд",
      "name_en": "Thailand",
      "iso2": "TH",
      "active": true
    }
  },
  {
    "id": 1193,
    "name_ru": "Ча Ам",
    "name_en": "Cha Am",
    "active": true,
    "featured": false,
    "iata": "BKK",
    "country": {
      "id": 87,
      "name_ru": "Таиланд",
      "name_en": "Thailand",
      "iso2": "TH",
      "active": true
    }
  },
  {
    "id": 1194,
    "name_ru": "Ко Ланта",
    "name_en": "Ko Lanta",
    "active": true,
    "featured": false,
    "iata": "KBV",
    "country": {
      "id": 87,
      "name_ru": "Таиланд",
      "name_en": "Thailand",
      "iso2": "TH",
      "active": true
    }
  },
  {
    "id": 1195,
    "name_ru": "Ко Яо Ной",
    "name_en": "Koh Yao Noi",
    "active": true,
    "featured": false,
    "iata": "HKT",
    "country": {
      "id": 87,
      "name_ru": "Таиланд",
      "name_en": "Thailand",
      "iso2": "TH",
      "active": true
    }
  },
  {
    "id": 1196,
    "name_ru": "Районг",
    "name_en": "Rayong",
    "active": true,
    "featured": false,
    "iata": "BKK",
    "country": {
      "id": 87,
      "name_ru": "Таиланд",
      "name_en": "Thailand",
      "iso2": "TH",
      "active": true
    }
  },
  {
    "id": 1050,
    "name_ru": "Ахунгала",
    "name_en": "Ahungalla",
    "active": true,
    "featured": false,
    "iata": null,
    "country": {
      "id": 88,
      "name_ru": "Шри-Ланка",
      "name_en": "Sri Lanka",
      "iso2": "LK",
      "active": true
    }
  },
  {
    "id": 1051,
    "name_ru": "Бентота",
    "name_en": "Bentota",
    "active": true,
    "featured": false,
    "iata": null,
    "country": {
      "id": 88,
      "name_ru": "Шри-Ланка",
      "name_en": "Sri Lanka",
      "iso2": "LK",
      "active": true
    }
  },
  {
    "id": 1052,
    "name_ru": "Берувела",
    "name_en": "Beruwela",
    "active": true,
    "featured": false,
    "iata": null,
    "country": {
      "id": 88,
      "name_ru": "Шри-Ланка",
      "name_en": "Sri Lanka",
      "iso2": "LK",
      "active": true
    }
  },
  {
    "id": 1053,
    "name_ru": "Ваддува",
    "name_en": "Wadduwa",
    "active": true,
    "featured": false,
    "iata": null,
    "country": {
      "id": 88,
      "name_ru": "Шри-Ланка",
      "name_en": "Sri Lanka",
      "iso2": "LK",
      "active": true
    }
  },
  {
    "id": 1054,
    "name_ru": "Ваикал",
    "name_en": "Waikkal",
    "active": true,
    "featured": false,
    "iata": null,
    "country": {
      "id": 88,
      "name_ru": "Шри-Ланка",
      "name_en": "Sri Lanka",
      "iso2": "LK",
      "active": true
    }
  },
  {
    "id": 1055,
    "name_ru": "Велигама",
    "name_en": "Weligama",
    "active": true,
    "featured": false,
    "iata": null,
    "country": {
      "id": 88,
      "name_ru": "Шри-Ланка",
      "name_en": "Sri Lanka",
      "iso2": "LK",
      "active": true
    }
  },
  {
    "id": 1056,
    "name_ru": "Галле",
    "name_en": "Galle",
    "active": true,
    "featured": false,
    "iata": null,
    "country": {
      "id": 88,
      "name_ru": "Шри-Ланка",
      "name_en": "Sri Lanka",
      "iso2": "LK",
      "active": true
    }
  },
  {
    "id": 1057,
    "name_ru": "Диквелла",
    "name_en": "Dikvella",
    "active": true,
    "featured": false,
    "iata": null,
    "country": {
      "id": 88,
      "name_ru": "Шри-Ланка",
      "name_en": "Sri Lanka",
      "iso2": "LK",
      "active": true
    }
  },
  {
    "id": 1058,
    "name_ru": "Индурува",
    "name_en": "Induruwa",
    "active": true,
    "featured": false,
    "iata": null,
    "country": {
      "id": 88,
      "name_ru": "Шри-Ланка",
      "name_en": "Sri Lanka",
      "iso2": "LK",
      "active": true
    }
  },
  {
    "id": 1059,
    "name_ru": "Калутара",
    "name_en": "Kalutara",
    "active": true,
    "featured": false,
    "iata": null,
    "country": {
      "id": 88,
      "name_ru": "Шри-Ланка",
      "name_en": "Sri Lanka",
      "iso2": "LK",
      "active": true
    }
  },
  {
    "id": 1060,
    "name_ru": "Когалла",
    "name_en": "Kogalla",
    "active": true,
    "featured": false,
    "iata": null,
    "country": {
      "id": 88,
      "name_ru": "Шри-Ланка",
      "name_en": "Sri Lanka",
      "iso2": "LK",
      "active": true
    }
  },
  {
    "id": 1061,
    "name_ru": "Коломбо",
    "name_en": "Colombo",
    "active": true,
    "featured": false,
    "iata": null,
    "country": {
      "id": 88,
      "name_ru": "Шри-Ланка",
      "name_en": "Sri Lanka",
      "iso2": "LK",
      "active": true
    }
  },
  {
    "id": 1062,
    "name_ru": "Косгода",
    "name_en": "Kosgoda",
    "active": true,
    "featured": false,
    "iata": null,
    "country": {
      "id": 88,
      "name_ru": "Шри-Ланка",
      "name_en": "Sri Lanka",
      "iso2": "LK",
      "active": true
    }
  },
  {
    "id": 1063,
    "name_ru": "Маравилла",
    "name_en": "Maravilla",
    "active": true,
    "featured": false,
    "iata": null,
    "country": {
      "id": 88,
      "name_ru": "Шри-Ланка",
      "name_en": "Sri Lanka",
      "iso2": "LK",
      "active": true
    }
  },
  {
    "id": 1064,
    "name_ru": "Маунт Лавиния",
    "name_en": "Mount Lavinia",
    "active": true,
    "featured": false,
    "iata": null,
    "country": {
      "id": 88,
      "name_ru": "Шри-Ланка",
      "name_en": "Sri Lanka",
      "iso2": "LK",
      "active": true
    }
  },
  {
    "id": 1065,
    "name_ru": "Негомбо",
    "name_en": "Negombo",
    "active": true,
    "featured": false,
    "iata": null,
    "country": {
      "id": 88,
      "name_ru": "Шри-Ланка",
      "name_en": "Sri Lanka",
      "iso2": "LK",
      "active": true
    }
  },
  {
    "id": 1066,
    "name_ru": "Тангалле",
    "name_en": "Tangalle",
    "active": true,
    "featured": false,
    "iata": null,
    "country": {
      "id": 88,
      "name_ru": "Шри-Ланка",
      "name_en": "Sri Lanka",
      "iso2": "LK",
      "active": true
    }
  },
  {
    "id": 1067,
    "name_ru": "Тринкомали",
    "name_en": "Trincomalee",
    "active": true,
    "featured": false,
    "iata": null,
    "country": {
      "id": 88,
      "name_ru": "Шри-Ланка",
      "name_en": "Sri Lanka",
      "iso2": "LK",
      "active": true
    }
  },
  {
    "id": 1068,
    "name_ru": "Унаватуна",
    "name_en": "Unawatuna",
    "active": true,
    "featured": false,
    "iata": null,
    "country": {
      "id": 88,
      "name_ru": "Шри-Ланка",
      "name_en": "Sri Lanka",
      "iso2": "LK",
      "active": true
    }
  },
  {
    "id": 1069,
    "name_ru": "Хиккадува",
    "name_en": "Hikkaduwa",
    "active": true,
    "featured": false,
    "iata": null,
    "country": {
      "id": 88,
      "name_ru": "Шри-Ланка",
      "name_en": "Sri Lanka",
      "iso2": "LK",
      "active": true
    }
  },
  {
    "id": 1143,
    "name_ru": "Ратгама",
    "name_en": "Rathgama",
    "active": true,
    "featured": false,
    "iata": null,
    "country": {
      "id": 88,
      "name_ru": "Шри-Ланка",
      "name_en": "Sri Lanka",
      "iso2": "LK",
      "active": true
    }
  },
  {
    "id": 1144,
    "name_ru": "Чилау",
    "name_en": "Chilaw",
    "active": true,
    "featured": false,
    "iata": null,
    "country": {
      "id": 88,
      "name_ru": "Шри-Ланка",
      "name_en": "Sri Lanka",
      "iso2": "LK",
      "active": true
    }
  },
  {
    "id": 1163,
    "name_ru": "Хабарадува",
    "name_en": "Habaraduwa",
    "active": true,
    "featured": false,
    "iata": null,
    "country": {
      "id": 88,
      "name_ru": "Шри-Ланка",
      "name_en": "Sri Lanka",
      "iso2": "LK",
      "active": true
    }
  },
  {
    "id": 1232,
    "name_ru": "Пассикуда",
    "name_en": "Passikudah",
    "active": true,
    "featured": false,
    "iata": null,
    "country": {
      "id": 88,
      "name_ru": "Шри-Ланка",
      "name_en": "Sri Lanka",
      "iso2": "LK",
      "active": true
    }
  },
  {
    "id": 1233,
    "name_ru": "Яла",
    "name_en": "Yala",
    "active": true,
    "featured": false,
    "iata": null,
    "country": {
      "id": 88,
      "name_ru": "Шри-Ланка",
      "name_en": "Sri Lanka",
      "iso2": "LK",
      "active": true
    }
  },
  {
    "id": 1234,
    "name_ru": "Канди",
    "name_en": "Kandy",
    "active": true,
    "featured": false,
    "iata": null,
    "country": {
      "id": 88,
      "name_ru": "Шри-Ланка",
      "name_en": "Sri Lanka",
      "iso2": "LK",
      "active": true
    }
  },
  {
    "id": 1235,
    "name_ru": "Хабарана",
    "name_en": "Habarana",
    "active": true,
    "featured": false,
    "iata": null,
    "country": {
      "id": 88,
      "name_ru": "Шри-Ланка",
      "name_en": "Sri Lanka",
      "iso2": "LK",
      "active": true
    }
  },
  {
    "id": 1236,
    "name_ru": "Катарагама",
    "name_en": "Kataragama",
    "active": true,
    "featured": false,
    "iata": null,
    "country": {
      "id": 88,
      "name_ru": "Шри-Ланка",
      "name_en": "Sri Lanka",
      "iso2": "LK",
      "active": true
    }
  },
  {
    "id": 1237,
    "name_ru": "Нувара Элия",
    "name_en": "Nuwara Eliya",
    "active": true,
    "featured": false,
    "iata": null,
    "country": {
      "id": 88,
      "name_ru": "Шри-Ланка",
      "name_en": "Sri Lanka",
      "iso2": "LK",
      "active": true
    }
  },
  {
    "id": 1238,
    "name_ru": "Дамбулла",
    "name_en": "Dambulla",
    "active": true,
    "featured": false,
    "iata": null,
    "country": {
      "id": 88,
      "name_ru": "Шри-Ланка",
      "name_en": "Sri Lanka",
      "iso2": "LK",
      "active": true
    }
  },
  {
    "id": 1241,
    "name_ru": "Мирисса ",
    "name_en": "Mirissa",
    "active": true,
    "featured": false,
    "iata": null,
    "country": {
      "id": 88,
      "name_ru": "Шри-Ланка",
      "name_en": "Sri Lanka",
      "iso2": "LK",
      "active": true
    }
  },
  {
    "id": 1242,
    "name_ru": "Панадура",
    "name_en": "Panadura",
    "active": true,
    "featured": false,
    "iata": null,
    "country": {
      "id": 88,
      "name_ru": "Шри-Ланка",
      "name_en": "Sri Lanka",
      "iso2": "LK",
      "active": true
    }
  },
  {
    "id": 1243,
    "name_ru": "Ахангама",
    "name_en": "Ahangama",
    "active": true,
    "featured": false,
    "iata": null,
    "country": {
      "id": 88,
      "name_ru": "Шри-Ланка",
      "name_en": "Sri Lanka",
      "iso2": "LK",
      "active": true
    }
  },
  {
    "id": 1244,
    "name_ru": "Калпития",
    "name_en": "Kalpitiya",
    "active": true,
    "featured": false,
    "iata": null,
    "country": {
      "id": 88,
      "name_ru": "Шри-Ланка",
      "name_en": "Sri Lanka",
      "iso2": "LK",
      "active": true
    }
  },
  {
    "id": 1245,
    "name_ru": "Анурадхапура",
    "name_en": "Anuradhapura",
    "active": true,
    "featured": false,
    "iata": null,
    "country": {
      "id": 88,
      "name_ru": "Шри-Ланка",
      "name_en": "Sri Lanka",
      "iso2": "LK",
      "active": true
    }
  },
  {
    "id": 1246,
    "name_ru": "Полоннарува",
    "name_en": "Polonnaruwa",
    "active": true,
    "featured": false,
    "iata": null,
    "country": {
      "id": 88,
      "name_ru": "Шри-Ланка",
      "name_en": "Sri Lanka",
      "iso2": "LK",
      "active": true
    }
  },
  {
    "id": 1247,
    "name_ru": "Сигирия",
    "name_en": "Sigiriya",
    "active": true,
    "featured": false,
    "iata": null,
    "country": {
      "id": 88,
      "name_ru": "Шри-Ланка",
      "name_en": "Sri Lanka",
      "iso2": "LK",
      "active": true
    }
  },
  {
    "id": 1248,
    "name_ru": "Аругам Бэй",
    "name_en": "Arugam Bay",
    "active": true,
    "featured": false,
    "iata": null,
    "country": {
      "id": 88,
      "name_ru": "Шри-Ланка",
      "name_en": "Sri Lanka",
      "iso2": "LK",
      "active": true
    }
  },
  {
    "id": 1070,
    "name_ru": "Абу-Даби",
    "name_en": "Abu Dhabi",
    "active": true,
    "featured": false,
    "iata": "AUH",
    "country": {
      "id": 89,
      "name_ru": "ОАЭ",
      "name_en": "UAE",
      "iso2": "AE",
      "active": true
    }
  },
  {
    "id": 1072,
    "name_ru": "Аджман",
    "name_en": "Ajman",
    "active": true,
    "featured": false,
    "iata": "SHJ",
    "country": {
      "id": 89,
      "name_ru": "ОАЭ",
      "name_en": "UAE",
      "iso2": "AE",
      "active": true
    }
  },
  {
    "id": 1073,
    "name_ru": "Аль Аин",
    "name_en": "Al Ain",
    "active": true,
    "featured": false,
    "iata": "AAN",
    "country": {
      "id": 89,
      "name_ru": "ОАЭ",
      "name_en": "UAE",
      "iso2": "AE",
      "active": true
    }
  },
  {
    "id": 1077,
    "name_ru": "Рас-аль-Хайма",
    "name_en": "Ras Al Khaimah",
    "active": true,
    "featured": false,
    "iata": "RKT",
    "country": {
      "id": 89,
      "name_ru": "ОАЭ",
      "name_en": "UAE",
      "iso2": "AE",
      "active": true
    }
  },
  {
    "id": 1078,
    "name_ru": "Фуджейра",
    "name_en": "Fujairah",
    "active": true,
    "featured": false,
    "iata": "FJR",
    "country": {
      "id": 89,
      "name_ru": "ОАЭ",
      "name_en": "UAE",
      "iso2": "AE",
      "active": true
    }
  },
  {
    "id": 1079,
    "name_ru": "Шарджа",
    "name_en": "Sharjah",
    "active": true,
    "featured": false,
    "iata": "SHJ",
    "country": {
      "id": 89,
      "name_ru": "ОАЭ",
      "name_en": "UAE",
      "iso2": "AE",
      "active": true
    }
  },
  {
    "id": 1137,
    "name_ru": "Дубаи город",
    "name_en": "Dubai city",
    "active": true,
    "featured": false,
    "iata": "DXB",
    "country": {
      "id": 89,
      "name_ru": "ОАЭ",
      "name_en": "UAE",
      "iso2": "AE",
      "active": true
    }
  },
  {
    "id": 1138,
    "name_ru": "Ум Аль Кувейн",
    "name_en": "Um Al Quwain",
    "active": true,
    "featured": false,
    "iata": "SHJ",
    "country": {
      "id": 89,
      "name_ru": "ОАЭ",
      "name_en": "UAE",
      "iso2": "AE",
      "active": true
    }
  },
  {
    "id": 1139,
    "name_ru": "Хатта",
    "name_en": "Hatta",
    "active": true,
    "featured": false,
    "iata": "LKO",
    "country": {
      "id": 89,
      "name_ru": "ОАЭ",
      "name_en": "UAE",
      "iso2": "AE",
      "active": true
    }
  },
  {
    "id": 1151,
    "name_ru": "Дибба",
    "name_en": "Dibba",
    "active": true,
    "featured": false,
    "iata": "RKT",
    "country": {
      "id": 89,
      "name_ru": "ОАЭ",
      "name_en": "UAE",
      "iso2": "AE",
      "active": true
    }
  },
  {
    "id": 1218,
    "name_ru": "Дубаи Джумейра",
    "name_en": "Dubai Jumeirah",
    "active": true,
    "featured": false,
    "iata": "DXB",
    "country": {
      "id": 89,
      "name_ru": "ОАЭ",
      "name_en": "UAE",
      "iso2": "AE",
      "active": true
    }
  },
  {
    "id": 1221,
    "name_ru": "Дубаи Пальма",
    "name_en": "Palm Jumeirah",
    "active": true,
    "featured": false,
    "iata": "DXB",
    "country": {
      "id": 89,
      "name_ru": "ОАЭ",
      "name_en": "UAE",
      "iso2": "AE",
      "active": true
    }
  },
  {
    "id": 1100,
    "name_ru": "Хаммамет",
    "name_en": "Hammamet",
    "active": true,
    "featured": false,
    "iata": "NBE",
    "country": {
      "id": 90,
      "name_ru": "Тунис",
      "name_en": "Tunisia",
      "iso2": "TN",
      "active": true
    }
  },
  {
    "id": 1101,
    "name_ru": "Монастир",
    "name_en": "Monastir",
    "active": true,
    "featured": false,
    "iata": "MIR",
    "country": {
      "id": 90,
      "name_ru": "Тунис",
      "name_en": "Tunisia",
      "iso2": "TN",
      "active": true
    }
  },
  {
    "id": 1102,
    "name_ru": "Сусс",
    "name_en": "Sousse",
    "active": true,
    "featured": false,
    "iata": "MIR",
    "country": {
      "id": 90,
      "name_ru": "Тунис",
      "name_en": "Tunisia",
      "iso2": "TN",
      "active": true
    }
  },
  {
    "id": 1136,
    "name_ru": "Махдия",
    "name_en": "Mahdia",
    "active": true,
    "featured": false,
    "iata": "MIR",
    "country": {
      "id": 90,
      "name_ru": "Тунис",
      "name_en": "Tunisia",
      "iso2": "TN",
      "active": true
    }
  },
  {
    "id": 1149,
    "name_ru": "Джерба",
    "name_en": "Djerba",
    "active": true,
    "featured": false,
    "iata": "DJE",
    "country": {
      "id": 90,
      "name_ru": "Тунис",
      "name_en": "Tunisia",
      "iso2": "TN",
      "active": true
    }
  },
  {
    "id": 1150,
    "name_ru": "Набель",
    "name_en": "Nabeul",
    "active": true,
    "featured": false,
    "iata": "NBE",
    "country": {
      "id": 90,
      "name_ru": "Тунис",
      "name_en": "Tunisia",
      "iso2": "TN",
      "active": true
    }
  },
  {
    "id": 1177,
    "name_ru": "Корба",
    "name_en": "Korba",
    "active": true,
    "featured": false,
    "iata": "TUN",
    "country": {
      "id": 90,
      "name_ru": "Тунис",
      "name_en": "Tunisia",
      "iso2": "TN",
      "active": true
    }
  },
  {
    "id": 1178,
    "name_ru": "Гаммарт",
    "name_en": "Gammarth",
    "active": true,
    "featured": false,
    "iata": "TUN",
    "country": {
      "id": 90,
      "name_ru": "Тунис",
      "name_en": "Tunisia",
      "iso2": "TN",
      "active": true
    }
  },
  {
    "id": 1198,
    "name_ru": "Тунис",
    "name_en": "Tunis",
    "active": true,
    "featured": false,
    "iata": "TUN",
    "country": {
      "id": 90,
      "name_ru": "Тунис",
      "name_en": "Tunisia",
      "iso2": "TN",
      "active": true
    }
  },
  {
    "id": 1224,
    "name_ru": "Табарка",
    "name_en": "Tabarka",
    "active": true,
    "featured": false,
    "iata": "TBJ",
    "country": {
      "id": 90,
      "name_ru": "Тунис",
      "name_en": "Tunisia",
      "iso2": "TN",
      "active": true
    }
  },
  {
    "id": 1231,
    "name_ru": "Тозеур ",
    "name_en": "Tozeur",
    "active": true,
    "featured": false,
    "iata": "TOE",
    "country": {
      "id": 90,
      "name_ru": "Тунис",
      "name_en": "Tunisia",
      "iso2": "TN",
      "active": true
    }
  },
  {
    "id": 1108,
    "name_ru": "Остров Бёрд",
    "name_en": "Bird Island",
    "active": true,
    "featured": false,
    "iata": "SEZ",
    "country": {
      "id": 91,
      "name_ru": "Сейшелы",
      "name_en": "Seychelles",
      "iso2": "SC",
      "active": true
    }
  },
  {
    "id": 1109,
    "name_ru": "Остров Серф",
    "name_en": "Cerf Island",
    "active": true,
    "featured": false,
    "iata": "SEZ",
    "country": {
      "id": 91,
      "name_ru": "Сейшелы",
      "name_en": "Seychelles",
      "iso2": "SC",
      "active": true
    }
  },
  {
    "id": 1110,
    "name_ru": "Остров Кузин",
    "name_en": "Cousine Island",
    "active": true,
    "featured": false,
    "iata": "SEZ",
    "country": {
      "id": 91,
      "name_ru": "Сейшелы",
      "name_en": "Seychelles",
      "iso2": "SC",
      "active": true
    }
  },
  {
    "id": 1111,
    "name_ru": "Остров Денис",
    "name_en": "Denis Island",
    "active": true,
    "featured": false,
    "iata": "SEZ",
    "country": {
      "id": 91,
      "name_ru": "Сейшелы",
      "name_en": "Seychelles",
      "iso2": "SC",
      "active": true
    }
  },
  {
    "id": 1112,
    "name_ru": "Остров Дерош",
    "name_en": "Desroches Island",
    "active": true,
    "featured": false,
    "iata": "SEZ",
    "country": {
      "id": 91,
      "name_ru": "Сейшелы",
      "name_en": "Seychelles",
      "iso2": "SC",
      "active": true
    }
  },
  {
    "id": 1113,
    "name_ru": "Остров Фрегат",
    "name_en": "Fregat Island",
    "active": true,
    "featured": false,
    "iata": "SEZ",
    "country": {
      "id": 91,
      "name_ru": "Сейшелы",
      "name_en": "Seychelles",
      "iso2": "SC",
      "active": true
    }
  },
  {
    "id": 1114,
    "name_ru": "Остров Ла Диг",
    "name_en": "La Digue Island",
    "active": true,
    "featured": false,
    "iata": "SEZ",
    "country": {
      "id": 91,
      "name_ru": "Сейшелы",
      "name_en": "Seychelles",
      "iso2": "SC",
      "active": true
    }
  },
  {
    "id": 1115,
    "name_ru": "Остров Маэ",
    "name_en": "Mahe Island",
    "active": true,
    "featured": false,
    "iata": "SEZ",
    "country": {
      "id": 91,
      "name_ru": "Сейшелы",
      "name_en": "Seychelles",
      "iso2": "SC",
      "active": true
    }
  },
  {
    "id": 1116,
    "name_ru": "Остров Норт",
    "name_en": "North Island",
    "active": true,
    "featured": false,
    "iata": "SEZ",
    "country": {
      "id": 91,
      "name_ru": "Сейшелы",
      "name_en": "Seychelles",
      "iso2": "SC",
      "active": true
    }
  },
  {
    "id": 1117,
    "name_ru": "Остров Праслен",
    "name_en": "Praslin Island",
    "active": true,
    "featured": false,
    "iata": "SEZ",
    "country": {
      "id": 91,
      "name_ru": "Сейшелы",
      "name_en": "Seychelles",
      "iso2": "SC",
      "active": true
    }
  },
  {
    "id": 1118,
    "name_ru": "Остров Святой Анны",
    "name_en": " Sainte Anne Island",
    "active": true,
    "featured": false,
    "iata": "SEZ",
    "country": {
      "id": 91,
      "name_ru": "Сейшелы",
      "name_en": "Seychelles",
      "iso2": "SC",
      "active": true
    }
  },
  {
    "id": 1119,
    "name_ru": "Остров Силуэт",
    "name_en": "Silhouette Island",
    "active": true,
    "featured": false,
    "iata": "SEZ",
    "country": {
      "id": 91,
      "name_ru": "Сейшелы",
      "name_en": "Seychelles",
      "iso2": "SC",
      "active": true
    }
  },
  {
    "id": 1140,
    "name_ru": "Бечичи",
    "name_en": "Becici",
    "active": true,
    "featured": false,
    "iata": "TIV",
    "country": {
      "id": 94,
      "name_ru": "Черногория",
      "name_en": "Montenegro",
      "iso2": "ME",
      "active": true
    }
  },
  {
    "id": 1141,
    "name_ru": "Будва",
    "name_en": "Budva",
    "active": true,
    "featured": false,
    "iata": "TIV",
    "country": {
      "id": 94,
      "name_ru": "Черногория",
      "name_en": "Montenegro",
      "iso2": "ME",
      "active": true
    }
  },
  {
    "id": 1142,
    "name_ru": "Петровац",
    "name_en": "Petrovac",
    "active": true,
    "featured": false,
    "iata": "TIV",
    "country": {
      "id": 94,
      "name_ru": "Черногория",
      "name_en": "Montenegro",
      "iso2": "ME",
      "active": true
    }
  },
  {
    "id": 1165,
    "name_ru": "Улцинь",
    "name_en": "Ulcinj",
    "active": true,
    "featured": false,
    "iata": "TGD",
    "country": {
      "id": 94,
      "name_ru": "Черногория",
      "name_en": "Montenegro",
      "iso2": "ME",
      "active": true
    }
  },
  {
    "id": 1166,
    "name_ru": "Свети-Стефан ",
    "name_en": "Sveti Stefan",
    "active": true,
    "featured": false,
    "iata": "TIV",
    "country": {
      "id": 94,
      "name_ru": "Черногория",
      "name_en": "Montenegro",
      "iso2": "ME",
      "active": true
    }
  },
  {
    "id": 1167,
    "name_ru": "Рафаиловичи",
    "name_en": "Rafailovici ",
    "active": true,
    "featured": false,
    "iata": "TIV",
    "country": {
      "id": 94,
      "name_ru": "Черногория",
      "name_en": "Montenegro",
      "iso2": "ME",
      "active": true
    }
  },
  {
    "id": 1168,
    "name_ru": "Пржно",
    "name_en": "Przno",
    "active": true,
    "featured": false,
    "iata": "TIV",
    "country": {
      "id": 94,
      "name_ru": "Черногория",
      "name_en": "Montenegro",
      "iso2": "ME",
      "active": true
    }
  },
  {
    "id": 1169,
    "name_ru": "Пераст",
    "name_en": "Perast",
    "active": true,
    "featured": false,
    "iata": "TIV",
    "country": {
      "id": 94,
      "name_ru": "Черногория",
      "name_en": "Montenegro",
      "iso2": "ME",
      "active": true
    }
  },
  {
    "id": 1170,
    "name_ru": "Милочер",
    "name_en": "Milocer",
    "active": true,
    "featured": false,
    "iata": "TIV",
    "country": {
      "id": 94,
      "name_ru": "Черногория",
      "name_en": "Montenegro",
      "iso2": "ME",
      "active": true
    }
  },
  {
    "id": 1171,
    "name_ru": "Котор",
    "name_en": "Kotor",
    "active": true,
    "featured": false,
    "iata": "TIV",
    "country": {
      "id": 94,
      "name_ru": "Черногория",
      "name_en": "Montenegro",
      "iso2": "ME",
      "active": true
    }
  },
  {
    "id": 1172,
    "name_ru": "Игало",
    "name_en": "Igalo",
    "active": true,
    "featured": false,
    "iata": "DBV",
    "country": {
      "id": 94,
      "name_ru": "Черногория",
      "name_en": "Montenegro",
      "iso2": "ME",
      "active": true
    }
  },
  {
    "id": 1173,
    "name_ru": "Херцег-Нови",
    "name_en": "Herceg Novi ",
    "active": true,
    "featured": false,
    "iata": "DBV",
    "country": {
      "id": 94,
      "name_ru": "Черногория",
      "name_en": "Montenegro",
      "iso2": "ME",
      "active": true
    }
  },
  {
    "id": 1174,
    "name_ru": "Дженовичи",
    "name_en": "Djenovici",
    "active": true,
    "featured": false,
    "iata": "TIV",
    "country": {
      "id": 94,
      "name_ru": "Черногория",
      "name_en": "Montenegro",
      "iso2": "ME",
      "active": true
    }
  },
  {
    "id": 1175,
    "name_ru": "Добра-Вода",
    "name_en": "Dobra Voda",
    "active": true,
    "featured": false,
    "iata": "TGD",
    "country": {
      "id": 94,
      "name_ru": "Черногория",
      "name_en": "Montenegro",
      "iso2": "ME",
      "active": true
    }
  },
  {
    "id": 1176,
    "name_ru": "Бар",
    "name_en": "Bar",
    "active": true,
    "featured": false,
    "iata": "TGD",
    "country": {
      "id": 94,
      "name_ru": "Черногория",
      "name_en": "Montenegro",
      "iso2": "ME",
      "active": true
    }
  },
  {
    "id": 1186,
    "name_ru": "Тиват",
    "name_en": "Tivat",
    "active": true,
    "featured": false,
    "iata": "TIV",
    "country": {
      "id": 94,
      "name_ru": "Черногория",
      "name_en": "Montenegro",
      "iso2": "ME",
      "active": true
    }
  },
  {
    "id": 1187,
    "name_ru": "Сутоморе",
    "name_en": "Sutomore",
    "active": true,
    "featured": false,
    "iata": "TGD",
    "country": {
      "id": 94,
      "name_ru": "Черногория",
      "name_en": "Montenegro",
      "iso2": "ME",
      "active": true
    }
  },
  {
    "id": 1188,
    "name_ru": "Подгорица",
    "name_en": "Podgorica",
    "active": true,
    "featured": false,
    "iata": "TGD",
    "country": {
      "id": 94,
      "name_ru": "Черногория",
      "name_en": "Montenegro",
      "iso2": "ME",
      "active": true
    }
  },
  {
    "id": 1239,
    "name_ru": "Колашин",
    "name_en": "Kolasin",
    "active": true,
    "featured": false,
    "iata": null,
    "country": {
      "id": 94,
      "name_ru": "Черногория",
      "name_en": "Montenegro",
      "iso2": "ME",
      "active": true
    }
  },
  {
    "id": 1240,
    "name_ru": "Жабляк",
    "name_en": "Zabljak",
    "active": true,
    "featured": false,
    "iata": null,
    "country": {
      "id": 94,
      "name_ru": "Черногория",
      "name_en": "Montenegro",
      "iso2": "ME",
      "active": true
    }
  },
  {
    "id": 1252,
    "name_ru": "Шушань",
    "name_en": "Shushan",
    "active": true,
    "featured": false,
    "iata": null,
    "country": {
      "id": 94,
      "name_ru": "Черногория",
      "name_en": "Montenegro",
      "iso2": "ME",
      "active": true
    }
  },
  {
    "id": 1157,
    "name_ru": "Ранэуэй-Бэй",
    "name_en": "Runaway Bay",
    "active": true,
    "featured": false,
    "iata": "",
    "country": {
      "id": 100,
      "name_ru": "Ямайка",
      "name_en": "Jamaica",
      "iso2": "JM",
      "active": true
    }
  },
  {
    "id": 1158,
    "name_ru": "Южное побережье",
    "name_en": "South Coast",
    "active": true,
    "featured": false,
    "iata": null,
    "country": {
      "id": 100,
      "name_ru": "Ямайка",
      "name_en": "Jamaica",
      "iso2": "JM",
      "active": true
    }
  },
  {
    "id": 1159,
    "name_ru": "Оракабесса",
    "name_en": "Oracabessa ",
    "active": true,
    "featured": false,
    "iata": null,
    "country": {
      "id": 100,
      "name_ru": "Ямайка",
      "name_en": "Jamaica",
      "iso2": "JM",
      "active": true
    }
  },
  {
    "id": 1160,
    "name_ru": "Очо Риос",
    "name_en": "Ocho Rios",
    "active": true,
    "featured": false,
    "iata": "",
    "country": {
      "id": 100,
      "name_ru": "Ямайка",
      "name_en": "Jamaica",
      "iso2": "JM",
      "active": true
    }
  },
  {
    "id": 1161,
    "name_ru": "Негрил",
    "name_en": "Negril ",
    "active": true,
    "featured": false,
    "iata": null,
    "country": {
      "id": 100,
      "name_ru": "Ямайка",
      "name_en": "Jamaica",
      "iso2": "JM",
      "active": true
    }
  },
  {
    "id": 1162,
    "name_ru": "Монтего-Бэй",
    "name_en": "Montego Bay ",
    "active": true,
    "featured": false,
    "iata": null,
    "country": {
      "id": 100,
      "name_ru": "Ямайка",
      "name_en": "Jamaica",
      "iso2": "JM",
      "active": true
    }
  },
  {
    "id": 1222,
    "name_ru": "Фалмут",
    "name_en": "Falmouth",
    "active": true,
    "featured": false,
    "iata": "",
    "country": {
      "id": 100,
      "name_ru": "Ямайка",
      "name_en": "Jamaica",
      "iso2": "JM",
      "active": true
    }
  },
  {
    "id": 1253,
    "name_ru": "Кингстон",
    "name_en": "Kingston",
    "active": true,
    "featured": false,
    "iata": null,
    "country": {
      "id": 100,
      "name_ru": "Ямайка",
      "name_en": "Jamaica",
      "iso2": "JM",
      "active": true
    }
  }
]