[
  {
    "id": 2,
    "name_ru": "Россия",
    "name_en": "Russia",
    "iso2": "RU",
    "active": true,
    "searchable": true
  },
  {
    "id": 3,
    "name_ru": "Египет",
    "name_en": "Egypt",
    "iso2": "EG",
    "active": true,
    "searchable": true
  },
  {
    "id": 4,
    "name_ru": "Турция",
    "name_en": "Turkey",
    "iso2": "TR",
    "active": true,
    "searchable": true
  },
  {
    "id": 27,
    "name_ru": "Вьетнам",
    "name_en": "Vietnam",
    "iso2": "VN",
    "active": true,
    "searchable": true
  },
  {
    "id": 39,
    "name_ru": "Израиль",
    "name_en": "Israel",
    "iso2": "IL",
    "active": true,
    "searchable": true
  },
  {
    "id": 41,
    "name_ru": "Индонезия",
    "name_en": "Indonesia",
    "iso2": "ID",
    "active": true,
    "searchable": true
  },
  {
    "id": 42,
    "name_ru": "Иордания",
    "name_en": "Jordan",
    "iso2": "JO",
    "active": true,
    "searchable": true
  },
  {
    "id": 47,
    "name_ru": "Доминикана",
    "name_en": "Dominican Republic",
    "iso2": "DO",
    "active": true,
    "searchable": true
  },
  {
    "id": 53,
    "name_ru": "Кипр",
    "name_en": "Cyprus",
    "iso2": "CY",
    "active": true,
    "searchable": true
  },
  {
    "id": 54,
    "name_ru": "Китай",
    "name_en": "China",
    "iso2": "CN",
    "active": true,
    "searchable": true
  },
  {
    "id": 57,
    "name_ru": "Куба",
    "name_en": "Cuba",
    "iso2": "CU",
    "active": true,
    "searchable": true
  },
  {
    "id": 66,
    "name_ru": "Маврикий",
    "name_en": "Mauritius",
    "iso2": "MU",
    "active": true,
    "searchable": true
  },
  {
    "id": 71,
    "name_ru": "Мальдивы",
    "name_en": "Maldives",
    "iso2": "MV",
    "active": true,
    "searchable": true
  },
  {
    "id": 80,
    "name_ru": "Марокко",
    "name_en": "Morocco",
    "iso2": "MA",
    "active": true,
    "searchable": true
  },
  {
    "id": 81,
    "name_ru": "Мексика",
    "name_en": "Mexico",
    "iso2": "MX",
    "active": true,
    "searchable": true
  },
  {
    "id": 87,
    "name_ru": "Таиланд",
    "name_en": "Thailand",
    "iso2": "TH",
    "active": true,
    "searchable": true
  },
  {
    "id": 88,
    "name_ru": "Шри-Ланка",
    "name_en": "Sri Lanka",
    "iso2": "LK",
    "active": true,
    "searchable": true
  },
  {
    "id": 89,
    "name_ru": "ОАЭ",
    "name_en": "UAE",
    "iso2": "AE",
    "active": true,
    "searchable": true
  },
  {
    "id": 90,
    "name_ru": "Тунис",
    "name_en": "Tunisia",
    "iso2": "TN",
    "active": true,
    "searchable": true
  },
  {
    "id": 91,
    "name_ru": "Сейшелы",
    "name_en": "Seychelles",
    "iso2": "SC",
    "active": true,
    "searchable": true
  },
  {
    "id": 94,
    "name_ru": "Черногория",
    "name_en": "Montenegro",
    "iso2": "ME",
    "active": true,
    "searchable": true
  },
  {
    "id": 100,
    "name_ru": "Ямайка",
    "name_en": "Jamaica",
    "iso2": "JM",
    "active": true,
    "searchable": true
  }
]