{
    "bucket_id": 1,
    "program": "MARKET_DELIVERY_PROGRAM",
    "currency": "RUR",
    "carrier_ids": [
        139
    ],
    "delivery_option_group_post_outlets": [
        {
            "post_code": 352473,
            "option_group_id": 1,
            "region": 213,
            "mbi_outlet_id": 10000475481
        },
        {
            "post_code": 117556,
            "option_group_id": 1,
            "region": 213,
            "mbi_outlet_id": 10000467191
        },
        {
            "post_code": 123376,
            "option_group_id": 1,
            "region": 213,
            "mbi_outlet_id": 10000456977
        },
        {
            "post_code": 422917,
            "option_group_id": 2,
            "region": 140591,
            "mbi_outlet_id": 10000880505
        },
        {
            "post_code": 630010,
            "option_group_id": 3,
            "region": 65,
            "mbi_outlet_id": 10000471814
        },
        {
            "post_code": 630022,
            "option_group_id": 3,
            "region": 65,
            "mbi_outlet_id": 10000471822
        },
        {
            "post_code": 190020,
            "option_group_id": 4,
            "region": 2,
            "mbi_outlet_id": 10000460171
        },
        {
            "post_code": 197022,
            "option_group_id": 4,
            "region": 2,
            "mbi_outlet_id": 10000453284
        }
    ],
    "tariff_id": 100063
}
